,AreaCode,Keyword,State,City,Impression Share (IS),Clicks,# Call Conversions,# Invoiced,# of Payments,$ Ad Cost,$ Invoiced,$ Received,Latitude,Longitude,CPC,$ Revenue / $ Ad Cost,$ Paid / $ Invoiced
0,210,best structural engineer,Texas,San-Antonio,100.0,1.0,0.0,0.0,0.0,12.46,0.0,0.0,29.370752000000003,-98.593203,12.46,0.0,0.0
1,210,civil structural engineer,Texas,San-Antonio,100.0,1.0,0.0,0.0,0.0,12.08,0.0,0.0,29.546515000000003,-98.55720699999999,12.08,0.0,0.0
2,210,foundation cracks,Texas,Universal-City,82.842,6.0,0.0,4.0,1.0,72.61999999999999,1650.0,400.0,29.520320200000004,-98.42522740000001,12.103333333333332,5.50812448361333,0.24242424242424243
3,210,foundation engineer inspection,Texas,Randolph-A-F-B,100.0,6.0,0.0,2.0,0.0,74.09,800.0,0.0,29.548664600000002,-98.49527540000001,12.348333333333334,0.0,0.0
4,210,foundation engineering,Texas,San-Antonio,91.63899999999998,38.0,8.0,4.0,2.0,437.53,1550.0,750.0,29.476413100000002,-98.511943,11.513947368421052,1.714168171325395,0.4838709677419355
5,210,home inspection engineers,Texas,San-Antonio,100.0,2.0,0.0,3.0,2.0,24.15,1500.0,1050.0,29.436433,-98.6742425,12.075,43.47826086956522,0.7
6,210,home structural engineer,Texas,San-Antonio,100.0,2.0,0.0,0.0,0.0,20.85,0.0,0.0,29.493823999999996,-98.580381,10.425,0.0,0.0
7,210,licensed structural engineer,Texas,San-Antonio,100.0,1.0,0.0,0.0,0.0,8.84,0.0,0.0,29.345246000000003,-98.443874,8.84,0.0,0.0
8,210,professional structural engineer,Texas,San-Antonio,100.0,1.0,0.0,0.0,0.0,12.13,0.0,0.0,29.422124,-98.52597800000001,12.13,0.0,0.0
9,210,resident engineer,Texas,San-Antonio,100.0,1.0,0.0,0.0,0.0,12.61,0.0,0.0,29.474147,-98.348083,12.61,0.0,0.0
10,210,residential engineer near me,Texas,San-Antonio,100.0,1.0,0.0,1.0,0.0,9.11,400.0,0.0,29.502729,-98.664897,9.11,0.0,0.0
11,210,residential foundation engineer,Texas,San-Antonio,100.0,2.0,0.0,0.0,0.0,22.47,0.0,0.0,29.466868499999997,-98.411042,11.235,0.0,0.0
12,210,residential structural engineer,Texas,San-Antonio,90.625,10.0,0.0,7.0,2.0,97.77,2950.0,850.0,29.483336166666664,-98.50503816666668,9.777,8.693873376291297,0.288135593220339
13,210,residential structural engineer inspection,Texas,Randolph-A-F-B,100.0,1.0,0.0,0.0,0.0,12.76,0.0,0.0,29.525969,-98.277499,12.76,0.0,0.0
14,210,steel structural engineer,Texas,San-Antonio,55.0,1.0,0.0,0.0,0.0,7.34,0.0,0.0,29.387990000000002,-98.526028,7.34,0.0,0.0
15,210,structural building engineer,Texas,Randolph-A-F-B,100.0,1.0,0.0,0.0,0.0,9.27,0.0,0.0,29.525969,-98.277499,9.27,0.0,0.0
16,210,structural calculations,Texas,Randolph-A-F-B,100.0,1.0,0.0,0.0,0.0,7.65,0.0,0.0,29.525969,-98.277499,7.65,0.0,0.0
17,210,structural design,Texas,San-Antonio,80.63,1.0,0.0,5.0,1.0,12.92,2050.0,400.0,29.585862,-98.406811,12.92,30.959752321981423,0.1951219512195122
18,210,structural engineer,Texas,Universal-City,89.56499999999998,214.0,30.0,19.0,8.0,2311.54,7550.0,2950.0,29.497008041666675,-98.48833429166667,10.801588785046729,1.276205473407339,0.39072847682119205
19,210,structural engineer costs,Texas,San-Antonio,100.0,1.0,0.0,3.0,2.0,9.39,1500.0,1050.0,29.401093,-98.730806,9.39,111.82108626198082,0.7
20,210,structural engineer inspection,Texas,San-Antonio,100.0,2.0,1.0,0.0,0.0,21.58,0.0,0.0,29.466868499999997,-98.411042,10.79,0.0,0.0
21,210,structural engineer inspection cost,Texas,San-Antonio,100.0,1.0,0.0,0.0,0.0,12.69,0.0,0.0,29.469011,-98.797801,12.69,0.0,0.0
22,210,structural engineer near me,Texas,San-Antonio,88.75,2.0,0.0,0.0,0.0,24.77,0.0,0.0,29.4449255,-98.547665,12.385,0.0,0.0
23,210,structural engineering companies,Texas,San-Antonio,100.0,1.0,0.0,0.0,0.0,12.24,0.0,0.0,29.404404,-98.505028,12.24,0.0,0.0
24,210,structural engineering firms,Texas,San-Antonio,100.0,5.0,0.0,0.0,0.0,61.6,0.0,0.0,29.426325000000002,-98.46808699999998,12.32,0.0,0.0
25,210,structural engineering firms near me,Texas,San-Antonio,100.0,1.0,3.0,0.0,0.0,12.32,0.0,0.0,29.370752000000003,-98.593203,12.32,0.0,0.0
26,210,structural inspection,Texas,San-Antonio,100.0,1.0,0.0,0.0,0.0,3.8,0.0,0.0,29.406624,-98.630303,3.8,0.0,0.0
27,210,top structural engineering firms,Texas,San-Antonio,100.0,1.0,0.0,0.0,0.0,12.8,0.0,0.0,29.622289000000002,-98.626164,12.8,0.0,0.0
28,210,windstorm inspection,Texas,San-Antonio,98.33500000000001,3.0,0.0,0.0,0.0,15.21,0.0,0.0,29.454008,-98.5405425,5.07,0.0,0.0
29,325,foundation cracks,Texas,Bangs,100.0,1.0,0.0,0.0,0.0,8.33,0.0,0.0,31.706204,-99.151374,8.33,0.0,0.0
30,325,structural engineer,Texas,Mason,100.0,2.0,0.0,0.0,0.0,21.57,0.0,0.0,30.691484000000003,-99.273312,10.785,0.0,0.0
31,361,find a structural engineer,Texas,Port-Lavaca,100.0,1.0,0.0,0.0,0.0,2.89,0.0,0.0,28.609718,-96.609368,2.89,0.0,0.0
32,361,foundation engineering,Texas,Inez,100.0,3.0,3.0,1.0,0.0,26.73,500.0,0.0,28.282377666666672,-97.13811133333333,8.91,0.0,0.0
33,361,home inspection engineers,Texas,Point-Comfort,100.0,2.0,0.0,0.0,0.0,15.27,0.0,0.0,28.934717499999998,-96.823649,7.635,0.0,0.0
34,361,local structural engineer near me,Texas,Aransas-Pass,100.0,2.0,0.0,0.0,0.0,17.72,0.0,0.0,28.138636499999997,-97.167054,8.86,0.0,0.0
35,361,residential engineer near me,Texas,Victoria,100.0,2.0,1.0,0.0,0.0,18.310000000000002,0.0,0.0,28.321596999999997,-97.29050850000002,9.155000000000001,0.0,0.0
36,361,residential structural engineer inspection,Texas,Shiner,100.0,1.0,0.0,0.0,0.0,13.0,0.0,0.0,29.453328999999997,-97.191865,13.0,0.0,0.0
37,361,structural calculations,Texas,Corpus-Christi,100.0,2.0,0.0,0.0,0.0,9.96,0.0,0.0,27.809478000000002,-97.522896,4.98,0.0,0.0
38,361,structural design,Texas,Victoria,100.0,1.0,0.0,0.0,0.0,2.34,0.0,0.0,28.804947,-96.984711,2.34,0.0,0.0
39,361,structural engineer,Texas,Victoria,96.00285714285714,20.0,0.0,2.0,0.0,138.21,1200.0,0.0,28.481441999999998,-97.13450971428571,6.910500000000001,0.0,0.0
40,361,structural engineer near me,Texas,Victoria,100.0,1.0,0.0,0.0,0.0,12.07,0.0,0.0,28.804947,-96.984711,12.07,0.0,0.0
41,361,wind inspection,Texas,Port-O-Connor,100.0,3.0,0.0,0.0,0.0,24.189999999999998,0.0,0.0,28.03475566666667,-97.07264766666667,8.063333333333333,0.0,0.0
42,361,windstorm inspection,Texas,Victoria,98.6725,30.0,3.0,1.0,0.0,148.83999999999997,500.0,0.0,28.178378916666663,-97.26068008333333,4.961333333333332,0.0,0.0
43,409,civil structural engineer,Texas,Galveston,100.0,1.0,0.0,0.0,0.0,8.11,0.0,0.0,29.310534999999998,-94.775768,8.11,0.0,0.0
44,409,find a structural engineer,Texas,Beaumont,100.0,1.0,0.0,0.0,0.0,12.9,0.0,0.0,30.073053,-94.105486,12.9,0.0,0.0
45,409,foundation cracks,Texas,Beaumont,100.0,1.0,0.0,0.0,0.0,12.55,0.0,0.0,30.086269,-94.128303,12.55,0.0,0.0
46,409,foundation engineering,Texas,Texas-City,96.0,5.0,2.0,1.0,0.0,36.5,550.0,0.0,29.957930999999995,-94.3003248,7.3,0.0,0.0
47,409,home structural engineer,Texas,Beaumont,100.0,1.0,0.0,0.0,0.0,9.94,0.0,0.0,30.146124,-94.160613,9.94,0.0,0.0
48,409,resident engineer,Texas,Galveston,100.0,2.0,0.0,1.0,0.0,21.03,550.0,0.0,29.338862,-94.9151145,10.515,0.0,0.0
49,409,residential engineer near me,Texas,Port-Arthur,55.0,1.0,0.0,1.0,0.0,8.95,800.0,0.0,29.881613,-93.94085799999999,8.95,0.0,0.0
50,409,residential structural engineer,Texas,Port-Neches,100.0,2.0,1.0,1.0,0.0,19.16,900.0,0.0,29.942,-94.058511,9.58,0.0,0.0
51,409,structural design,Texas,Groves,100.0,1.0,0.0,1.0,0.0,4.69,850.0,0.0,29.947515999999997,-93.918571,4.69,0.0,0.0
52,409,structural engineer,Texas,Woodville,93.08818181818184,58.0,9.0,11.0,1.0,370.04999999999995,8050.0,500.0,29.824411590909087,-94.42270354545454,6.380172413793103,1.3511687609782463,0.062111801242236024
53,409,structural engineer fees,Texas,Port-Neches,100.0,1.0,0.0,1.0,0.0,7.99,900.0,0.0,29.985971000000003,-93.95584699999999,7.99,0.0,0.0
54,409,structural engineer inspection,Texas,Santa-Fe,100.0,1.0,0.0,3.0,0.0,11.01,1642.5,0.0,29.364468,-95.131078,11.01,0.0,0.0
55,409,structural engineer inspection cost,Texas,Port-Arthur,100.0,1.0,0.0,1.0,0.0,3.37,800.0,0.0,29.881613,-93.94085799999999,3.37,0.0,0.0
56,409,structural engineer inspection near me,Texas,Bridge-City,100.0,1.0,1.0,0.0,0.0,12.63,0.0,0.0,30.014440000000004,-93.828241,12.63,0.0,0.0
57,409,structural engineer near me,Texas,Texas-City,93.125,5.0,0.0,1.0,0.0,46.9,550.0,0.0,29.86453225,-94.286742,9.379999999999999,0.0,0.0
58,409,structural engineering companies,Texas,Galveston,100.0,1.0,0.0,0.0,0.0,7.96,0.0,0.0,29.310534999999998,-94.775768,7.96,0.0,0.0
59,409,structural inspection,Texas,Beaumont,100.0,1.0,0.0,0.0,0.0,7.6,0.0,0.0,30.086269,-94.128303,7.6,0.0,0.0
60,409,wind inspection,Texas,Texas-City,100.0,1.0,1.0,0.0,0.0,2.49,0.0,0.0,29.391396999999998,-94.920149,2.49,0.0,0.0
61,409,windstorm inspection,Texas,Santa-Fe,97.94421052631579,42.0,8.0,11.0,1.0,223.14999999999998,8300.0,500.0,29.778755263157894,-94.40551336842104,5.313095238095237,2.2406453058480844,0.060240963855421686
62,469,american structural engineers,Texas,Addison,100.0,1.0,0.0,0.0,0.0,5.11,0.0,0.0,32.960046999999996,-96.838522,5.11,0.0,0.0
63,469,best structural engineer,Texas,Frisco,70.0,1.0,0.0,2.0,0.0,7.72,450.0,0.0,33.163129999999995,-96.790193,7.72,0.0,0.0
64,469,best structural engineering firms,Texas,Mckinney,100.0,1.0,0.0,0.0,0.0,12.69,0.0,0.0,33.179984000000005,-96.585712,12.69,0.0,0.0
65,469,forensic structural engineer,Texas,Mckinney,100.0,4.0,0.0,12.0,0.0,47.660000000000004,8510.0,0.0,33.0753515,-96.695897,11.915000000000001,0.0,0.0
66,469,foundation cracks,Texas,Flower-Mound,85.9809090909091,22.0,1.0,7.0,0.0,266.98,2900.0,0.0,32.97645263636364,-96.7346356363636,12.135454545454547,0.0,0.0
67,469,foundation engineer inspection,Texas,Flower-Mound,100.0,8.0,0.0,5.0,1.0,99.96000000000001,2400.0,450.0,32.88677285714285,-96.84178671428572,12.495000000000001,4.501800720288115,0.1875
68,469,foundation engineering,Texas,Addison,86.73214285714286,63.0,6.5,15.0,2.0,723.77,6950.0,950.0,32.899483999999994,-96.77936342857143,11.488412698412699,1.3125716733216353,0.1366906474820144
69,469,foundation structural engineer,Texas,Lewisville,100.0,4.0,1.0,8.0,1.0,50.11,5400.0,400.0,33.03198925,-96.7344975,12.5275,7.982438635002993,0.07407407407407407
70,469,freelance structural engineer,Texas,Dallas,100.0,1.0,0.0,0.0,0.0,3.35,0.0,0.0,32.902679,-96.79339300000001,3.35,0.0,0.0
71,469,home inspection,Texas,Carrollton,64.33,21.0,2.0,0.0,0.0,237.6,0.0,0.0,32.89999355555556,-96.76437377777776,11.314285714285713,0.0,0.0
72,469,home inspection class,Texas,Allen,92.0,6.0,0.0,0.0,0.0,63.39,0.0,0.0,33.0133064,-96.784353,10.565,0.0,0.0
73,469,home inspection engineers,Texas,Frisco,100.0,4.0,3.0,3.0,0.0,50.33,750.0,0.0,32.907243,-96.68195625,12.5825,0.0,0.0
74,469,home inspection services,Texas,Frisco,100.0,1.0,0.0,0.0,0.0,6.94,0.0,0.0,33.163129999999995,-96.790193,6.94,0.0,0.0
75,469,home inspector,Texas,Carrollton,65.53470588235294,19.0,3.0,0.0,0.0,210.57,0.0,0.0,32.85699082352941,-96.81138894117647,11.082631578947368,0.0,0.0
76,469,home inspectors near me,Texas,Frisco,71.46000000000001,4.0,0.0,0.0,0.0,43.480000000000004,0.0,0.0,33.000866,-96.70314499999999,10.870000000000001,0.0,0.0
77,469,home structural engineer,Texas,Addison,100.0,3.0,1.0,0.0,0.0,25.52,0.0,0.0,32.95146233333333,-96.75184233333333,8.506666666666666,0.0,0.0
78,469,house inspection,Texas,Allen,56.223333333333336,3.0,0.0,0.0,0.0,40.66,0.0,0.0,32.97794433333333,-96.85800166666667,13.553333333333333,0.0,0.0
79,469,house structure inspection,Texas,Flower-Mound,100.0,1.0,0.0,0.0,0.0,12.77,0.0,0.0,33.032709999999994,-97.06007,12.77,0.0,0.0
80,469,i need a structural engineer,Texas,Garland,100.0,1.0,0.0,0.0,0.0,9.74,0.0,0.0,32.880196000000005,-96.651555,9.74,0.0,0.0
81,469,licensed structural engineer,Texas,Dallas,100.0,1.0,0.0,0.0,0.0,8.59,0.0,0.0,32.660862,-96.840948,8.59,0.0,0.0
82,469,local structural engineer,Texas,Palmer,100.0,1.0,0.0,0.0,0.0,12.57,0.0,0.0,32.439871000000004,-96.678051,12.57,0.0,0.0
83,469,local structural engineer near me,Texas,Forney,100.0,1.0,0.0,0.0,0.0,9.0,0.0,0.0,32.743178,-96.4549,9.0,0.0,0.0
84,469,pe civil structural,Texas,Arlington,100.0,1.0,0.0,0.0,0.0,12.63,0.0,0.0,32.664590000000004,-97.096476,12.63,0.0,0.0
85,469,professional structural engineer,Texas,Mckinney,100.0,3.0,0.0,1.0,0.0,32.52,550.0,0.0,32.95691,-96.86812666666667,10.840000000000002,0.0,0.0
86,469,resident engineer,Texas,Little-Elm,76.11,3.0,1.0,4.0,2.0,21.88,1950.0,950.0,32.974586666666674,-96.81291133333333,7.293333333333333,43.41864716636198,0.48717948717948717
87,469,residential engineer near me,Texas,Mesquite,100.0,2.0,1.0,0.0,0.0,17.799999999999997,0.0,0.0,32.833332,-96.741575,8.899999999999999,0.0,0.0
88,469,residential foundation engineer,Texas,Addison,92.5,3.0,0.0,4.0,0.0,34.91,1650.0,0.0,32.93007766666667,-96.80490066666668,11.636666666666665,0.0,0.0
89,469,residential structural engineer,Texas,Addison,86.71333333333334,11.0,1.0,21.0,2.0,118.47999999999998,11210.0,900.0,33.02049322222222,-96.80223455555557,10.770909090909088,7.5962187711006095,0.08028545941123996
90,469,residential structural engineer inspection,Texas,Dallas,100.0,1.0,0.0,0.0,0.0,12.27,0.0,0.0,32.786796,-96.819971,12.27,0.0,0.0
91,469,residential structural engineer inspection near me,Texas,Royse-City,100.0,1.0,0.33,1.0,1.0,12.85,450.0,450.0,32.942051,-96.31166,12.85,35.01945525291829,1.0
92,469,residential structural engineer near me,Texas,The-Colony,100.0,1.0,0.0,8.0,1.0,12.95,3650.0,550.0,33.070183,-96.917772,12.95,42.47104247104247,0.1506849315068493
93,469,residential structural inspection,Texas,Flower-Mound,100.0,3.0,0.0,1.0,1.0,35.18000000000001,450.0,450.0,32.98124466666666,-96.65080033333334,11.726666666666668,12.791358726549173,1.0
94,469,small structural engineering firms,Texas,Sachse,100.0,1.0,0.0,0.0,0.0,12.62,0.0,0.0,32.968973,-96.580671,12.62,0.0,0.0
95,469,structural analysis engineer,Texas,Dallas,67.14,1.0,0.0,0.0,0.0,12.42,0.0,0.0,32.770635,-96.746362,12.42,0.0,0.0
96,469,structural contractors,Texas,Carrollton,100.0,1.0,0.0,0.0,0.0,10.99,0.0,0.0,33.050164,-96.87454,10.99,0.0,0.0
97,469,structural design,Texas,Frisco,84.87428571428572,18.0,0.0,4.0,1.0,183.60000000000002,1450.0,450.0,32.945998571428575,-96.74356071428572,10.200000000000001,2.4509803921568625,0.3103448275862069
98,469,structural design consultants,Texas,Dallas,100.0,1.0,0.0,0.0,0.0,5.64,0.0,0.0,32.811813,-96.812898,5.64,0.0,0.0
99,469,structural design engineer,Texas,Addison,87.14500000000001,2.0,0.0,0.0,0.0,17.83,0.0,0.0,32.660438,-96.8770225,8.915,0.0,0.0
100,469,structural engineer,Texas,Carrollton,87.22662921348312,622.0,54.7,62.0,10.0,6292.339999999999,31760.0,5200.0,32.87164311235955,-96.78462240449437,10.116302250803857,0.8264016248327333,0.163727959697733
101,469,structural engineer costs,Texas,Terrell,100.0,1.0,0.0,0.0,0.0,3.48,0.0,0.0,32.758408,-96.301323,3.48,0.0,0.0
102,469,structural engineer fees,Texas,Ennis,100.0,1.0,0.0,1.0,1.0,7.1,550.0,550.0,32.325881,-96.588238,7.1,77.46478873239437,1.0
103,469,structural engineer home inspection,Texas,Anna,100.0,1.0,0.0,0.0,0.0,12.7,0.0,0.0,33.3555,-96.516313,12.7,0.0,0.0
104,469,structural engineer inspection,Texas,Addison,97.51863636363636,29.0,3.0,25.0,1.0,319.87,14560.0,450.0,32.961284545454546,-96.70294949999999,11.03,1.4068215212430049,0.030906593406593408
105,469,structural engineer inspection cost,Texas,Plano,97.428,5.0,1.0,14.0,0.0,53.76,8960.0,0.0,33.0340454,-96.81232659999999,10.751999999999999,0.0,0.0
106,469,structural engineer inspection near me,Texas,Mckinney,100.0,1.0,0.0,12.0,0.0,12.12,8510.0,0.0,33.245816999999995,-96.63072,12.12,0.0,0.0
107,469,structural engineer near me,Texas,Flower-Mound,99.56769230769231,20.0,2.66,7.0,2.0,232.23000000000002,3500.0,900.0,32.89937253846154,-96.76736915384615,11.611500000000001,3.875468285751195,0.2571428571428571
108,469,structural engineering companies,Texas,Balch-Springs,100.0,5.0,0.0,2.0,0.0,54.78999999999999,1200.0,0.0,32.789744999999996,-96.76781675000001,10.957999999999998,0.0,0.0
109,469,structural engineering firms,Texas,Dallas,87.46,2.0,0.0,0.0,0.0,25.3,0.0,0.0,32.902679,-96.79339300000001,12.65,0.0,0.0
110,469,structural engineering services,Texas,Allen,100.0,4.0,0.0,0.0,0.0,38.82,0.0,0.0,33.092407,-96.63054333333332,9.705,0.0,0.0
111,469,structural home inspection,Texas,Dallas,100.0,1.0,0.0,0.0,0.0,12.53,0.0,0.0,32.792496,-96.772763,12.53,0.0,0.0
112,469,structural inspection,Texas,Carrollton,96.04733333333334,19.0,1.0,15.0,3.0,214.22000000000003,6750.0,2000.0,32.89130386666667,-96.81275580000002,11.274736842105265,9.336196433572962,0.2962962962962963
113,469,structural inspection cost,Texas,Lancaster,100.0,1.0,0.0,0.0,0.0,10.06,0.0,0.0,32.617663,-96.778058,10.06,0.0,0.0
114,469,what is checked in a home inspection,Texas,Rowlett,100.0,1.0,0.0,0.0,0.0,6.58,0.0,0.0,32.897841,-96.55037,6.58,0.0,0.0
115,469,wind inspection,Texas,Dallas,100.0,1.0,0.0,0.0,0.0,8.41,0.0,0.0,32.802127,-96.788853,8.41,0.0,0.0
116,469,windstorm inspection,Texas,Dallas,100.0,1.0,0.0,0.0,0.0,5.43,0.0,0.0,32.770635,-96.746362,5.43,0.0,0.0
117,512,find a structural engineer,Texas,Pflugerville,100.0,1.0,0.0,9.0,1.0,11.93,4300.0,400.0,30.439629999999998,-97.594687,11.93,33.52891869237217,0.09302325581395349
118,512,forensic structural engineer,Texas,Austin,100.0,1.0,0.0,1.0,0.0,7.51,400.0,0.0,30.310782,-97.722759,7.51,0.0,0.0
119,512,foundation cracks,Texas,Lampasas,88.58444444444444,16.0,1.0,12.0,3.0,194.42999999999998,5550.0,1200.0,30.49108855555555,-97.78533722222222,12.151874999999999,6.171887054466904,0.21621621621621623
120,512,foundation engineer inspection,Texas,Buda,100.0,1.0,0.0,1.0,0.0,12.51,0.0,0.0,30.078514000000002,-97.838012,12.51,0.0,0.0
121,512,foundation engineering,Texas,Cedar-Park,90.4890909090909,15.0,1.83,8.0,4.0,137.79000000000002,2850.0,1700.0,30.31673681818182,-97.77180563636362,9.186000000000002,12.337615211553812,0.5964912280701754
122,512,freelance structural engineer,Texas,Austin,100.0,1.0,0.0,1.0,0.0,12.31,400.0,0.0,30.178420000000003,-97.888662,12.31,0.0,0.0
123,512,home structural engineer,Texas,Rockdale,100.0,3.0,1.0,1.0,0.0,18.68,600.0,0.0,30.591988999999998,-97.365929,6.226666666666667,0.0,0.0
124,512,pe civil structural,Texas,Kyle,100.0,1.0,0.0,3.0,0.0,8.71,1350.0,0.0,29.999103,-97.82820699999999,8.71,0.0,0.0
125,512,professional structural engineer,Texas,Austin,100.0,1.0,0.0,1.0,0.0,12.9,0.0,0.0,30.289963,-97.71469599999999,12.9,0.0,0.0
126,512,qualified structural engineer,Texas,Kyle,100.0,1.0,0.0,3.0,0.0,4.84,1350.0,0.0,29.999103,-97.82820699999999,4.84,0.0,0.0
127,512,resident engineer,Texas,Austin,62.66,1.0,0.0,0.0,0.0,11.76,0.0,0.0,30.351538,-97.732571,11.76,0.0,0.0
128,512,residential engineer near me,Texas,Round-Rock,100.0,2.0,0.0,3.0,2.0,15.8,1350.0,900.0,30.460242,-97.724898,7.9,56.962025316455694,0.6666666666666666
129,512,residential structural engineer,Texas,Austin,98.72,1.0,0.0,0.0,0.0,12.95,0.0,0.0,30.351538,-97.732571,12.95,0.0,0.0
130,512,residential structural engineer near me,Texas,Cedar-Park,100.0,8.0,0.0,10.0,1.0,98.33999999999999,4600.0,400.0,30.50130033333333,-97.65509533333334,12.292499999999999,4.067520846044337,0.08695652173913043
131,512,structural calculations,Texas,Austin,100.0,1.0,0.0,0.0,0.0,9.09,0.0,0.0,30.230506,-97.714185,9.09,0.0,0.0
132,512,structural contractors,Texas,Austin,55.0,1.0,0.0,1.0,1.0,7.81,400.0,400.0,30.304274,-97.685715,7.81,51.216389244558265,1.0
133,512,structural design,Texas,Elgin,81.328,9.0,1.0,2.0,1.0,95.71999999999998,800.0,400.0,30.352173800000003,-97.67641039999998,10.635555555555554,4.1788549937317185,0.5
134,512,structural design engineer,Texas,Kyle,89.33333333333333,3.0,0.0,3.0,0.0,27.32,1350.0,0.0,30.274441333333332,-97.76027266666665,9.106666666666667,0.0,0.0
135,512,structural engineer,Texas,Kempner,89.0521052631579,359.0,33.92,43.0,12.0,3642.679999999999,20650.0,5600.0,30.392590499999994,-97.80531371052629,10.146740947075205,1.5373296583833884,0.2711864406779661
136,512,structural engineer inspection,Texas,Round-Rock,100.0,2.0,0.0,2.0,1.0,25.04,900.0,500.0,30.447478500000003,-97.6890865,12.52,19.968051118210862,0.5555555555555556
137,512,structural engineer near me,Texas,Lampasas,96.5,12.0,1.75,8.0,2.0,117.94,5500.0,1050.0,30.444445375,-97.886323,9.828333333333333,8.902831948448364,0.19090909090909092
138,512,structural engineering firms,Texas,Austin,98.0,2.0,1.0,1.0,0.0,18.18,400.0,0.0,30.236376500000002,-97.8135895,9.09,0.0,0.0
139,512,structural firm,Texas,Cedar-Park,91.0,2.0,0.0,1.0,0.0,21.8,300.0,0.0,30.4277435,-97.7783855,10.9,0.0,0.0
140,512,structural home inspection,Texas,Austin,100.0,1.0,0.0,3.0,0.0,9.51,1200.0,0.0,30.206851,-97.797384,9.51,0.0,0.0
141,512,structural inspection,Texas,Austin,94.0,6.0,0.0,4.0,0.0,56.51,1600.0,0.0,30.2774965,-97.76392083333333,9.418333333333333,0.0,0.0
142,512,top structural engineering firms,Texas,Austin,100.0,1.0,0.0,0.0,0.0,12.36,0.0,0.0,30.294333,-97.738517,12.36,0.0,0.0
143,817,best structural engineer,Texas,Hurst,100.0,2.0,0.33,1.0,0.0,25.36,450.0,0.0,32.807187,-97.4848605,12.68,0.0,0.0
144,817,foundation cracks,Texas,Bedford,72.055,6.0,0.0,1.0,0.0,76.23,400.0,0.0,32.816009,-97.25353925,12.705,0.0,0.0
145,817,foundation engineer inspection,Texas,Fort-Worth,95.25,11.0,0.0,2.0,2.0,124.59000000000002,800.0,800.0,32.66640125000001,-97.412226625,11.326363636363638,6.4210610803435255,1.0
146,817,foundation engineering,Texas,Bedford,94.598,30.0,6.0,3.0,2.0,332.68,1200.0,800.0,32.5547114,-97.33098746666666,11.089333333333334,2.4047132379463747,0.6666666666666666
147,817,foundation structural engineer,Texas,Fort-Worth,55.0,1.0,0.0,0.0,0.0,12.93,0.0,0.0,32.742058,-97.38173,12.93,0.0,0.0
148,817,home inspection,Texas,Arlington,66.20714285714286,10.0,0.0,0.0,0.0,109.74,0.0,0.0,32.74353542857143,-97.31420828571429,10.974,0.0,0.0
149,817,home inspection class,Texas,Arlington,93.57,2.0,0.0,0.0,0.0,38.650000000000006,0.0,0.0,32.58412,-97.227688,19.325000000000003,0.0,0.0
150,817,home inspection company,Texas,Fort-Worth,100.0,1.0,0.0,0.0,0.0,6.86,0.0,0.0,32.859685,-97.291523,6.86,0.0,0.0
151,817,home inspection engineers,Texas,Weatherford,100.0,2.0,0.0,3.0,2.0,23.18,1200.0,800.0,32.784405,-97.49514350000001,11.59,34.51251078515962,0.6666666666666666
152,817,home inspector,Texas,Mansfield,72.7,10.0,1.0,0.0,0.0,115.43,0.0,0.0,32.749751624999995,-97.42146599999998,11.543000000000001,0.0,0.0
153,817,home structural engineer,Texas,Arlington,100.0,2.0,0.0,1.0,0.0,15.42,450.0,0.0,32.8221705,-97.1392755,7.71,0.0,0.0
154,817,house inspection,Texas,Colleyville,93.3325,4.0,0.0,0.0,0.0,26.580000000000002,0.0,0.0,32.873293249999996,-97.35036124999999,6.6450000000000005,0.0,0.0
155,817,how do i get a home inspection,Texas,North-Richland-Hills,100.0,1.0,0.0,0.0,0.0,6.98,0.0,0.0,32.886201,-97.20773100000001,6.98,0.0,0.0
156,817,licensed structural engineer,Texas,Belton,100.0,1.0,0.0,0.0,0.0,7.71,0.0,0.0,31.051688000000002,-97.499909,7.71,0.0,0.0
157,817,local structural engineer near me,Texas,Fort-Worth,100.0,1.0,0.0,0.0,0.0,8.93,0.0,0.0,32.667539,-97.41680600000001,8.93,0.0,0.0
158,817,professional structural engineer,Texas,Keller,100.0,1.0,0.0,0.0,0.0,12.97,0.0,0.0,32.924005,-97.225146,12.97,0.0,0.0
159,817,resident engineer,Texas,Hurst,88.75,4.0,0.0,1.0,0.0,47.96,450.0,0.0,32.800734,-97.280183,11.99,0.0,0.0
160,817,residential construction engineer,Texas,Azle,100.0,2.0,0.0,2.0,1.0,10.69,1050.0,500.0,32.237459,-97.3441565,5.345,46.77268475210477,0.47619047619047616
161,817,residential engineer near me,Texas,Bedford,100.0,4.0,0.0,1.0,0.0,27.76,400.0,0.0,32.80948033333333,-97.28645866666666,6.94,0.0,0.0
162,817,residential structural engineer,Texas,Burleson,98.63666666666666,9.0,0.0,2.0,0.0,102.94,850.0,0.0,32.805082500000005,-97.18549583333333,11.437777777777777,0.0,0.0
163,817,residential structural engineer inspection near me,Texas,Killeen,100.0,3.0,0.0,0.0,0.0,37.9,0.0,0.0,31.146425,-97.6971215,12.633333333333333,0.0,0.0
164,817,residential structural engineer near me,Texas,Hurst,100.0,6.0,1.0,4.0,3.0,74.82,1650.0,1200.0,32.5637605,-97.2118765,12.469999999999999,16.03849238171612,0.7272727272727273
165,817,residential structural inspection,Texas,Haltom-City,100.0,1.0,0.0,4.0,2.0,12.11,3250.0,2100.0,32.803436,-97.267376,12.11,173.41040462427748,0.6461538461538462
166,817,str engineering,Texas,Stephenville,100.0,1.0,0.0,0.0,0.0,3.76,0.0,0.0,32.282235,-98.196717,3.76,0.0,0.0
167,817,structural analysis engineer,Texas,Hurst,100.0,1.0,0.0,1.0,0.0,10.66,450.0,0.0,32.85941,-97.178636,10.66,0.0,0.0
168,817,structural calculations,Texas,Weatherford,100.0,1.0,0.0,1.0,0.0,8.59,400.0,0.0,32.682609,-97.782556,8.59,0.0,0.0
169,817,structural contractors,Texas,Arlington,100.0,2.0,0.0,0.0,0.0,16.48,0.0,0.0,32.662513,-97.164024,8.24,0.0,0.0
170,817,structural design,Texas,Dallas,84.304,8.0,0.0,4.0,2.0,83.28,3250.0,2100.0,32.863682,-97.1598508,10.41,25.21613832853026,0.6461538461538462
171,817,structural engineer,Texas,Dallas,90.8938596491228,332.0,30.17,28.0,11.0,3315.2899999999995,13400.0,5750.0,32.324104561403495,-97.34664757894735,9.985813253012047,1.7343882435624036,0.4291044776119403
172,817,structural engineer costs,Texas,North-Richland-Hills,90.0,1.0,0.0,2.0,2.0,11.76,800.0,800.0,32.886201,-97.20773100000001,11.76,68.02721088435375,1.0
173,817,structural engineer fees,Texas,Euless,100.0,1.0,0.0,1.0,0.0,9.3,400.0,0.0,32.860285,-97.086028,9.3,0.0,0.0
174,817,structural engineer home inspection,Texas,Fort-Worth,100.0,1.0,0.0,0.0,0.0,12.92,0.0,0.0,32.742058,-97.38173,12.92,0.0,0.0
175,817,structural engineer inspection,Texas,Bedford,100.0,12.0,0.0,9.0,5.0,139.99,3800.0,2550.0,32.72914836363637,-97.4879381818182,11.665833333333333,18.215586827630545,0.6710526315789473
176,817,structural engineer inspection cost,Texas,Bedford,100.0,2.0,0.0,3.0,2.0,22.41,1200.0,800.0,32.858429,-97.1764445,11.205,35.698348951361,0.6666666666666666
177,817,structural engineer inspection near me,Texas,Haltom-City,100.0,1.0,0.0,4.0,2.0,12.51,3250.0,2100.0,32.803436,-97.267376,12.51,167.86570743405275,0.6461538461538462
178,817,structural engineer near me,Texas,Arlington,99.59294117647059,19.0,3.0,9.0,4.0,194.48,5300.0,2900.0,32.49417076470588,-97.38377347058824,10.23578947368421,14.911559029206089,0.5471698113207547
179,817,structural engineering companies,Texas,Granbury,100.0,2.0,0.0,4.0,0.0,18.05,2650.0,0.0,32.6676095,-97.622443,9.025,0.0,0.0
180,817,structural engineering firms,Texas,Dallas,83.36,4.0,0.0,0.0,0.0,45.03,0.0,0.0,32.832614,-96.849082,11.2575,0.0,0.0
181,817,structural engineering services,Texas,Waco,100.0,1.0,0.0,0.0,0.0,12.86,0.0,0.0,31.574721999999998,-97.127134,12.86,0.0,0.0
182,817,structural engineering services near me,Texas,Weatherford,100.0,1.0,0.0,1.0,0.0,5.61,400.0,0.0,32.682609,-97.782556,5.61,0.0,0.0
183,817,structural firm,Texas,Stephenville,100.0,1.0,0.0,0.0,0.0,12.57,0.0,0.0,32.282235,-98.196717,12.57,0.0,0.0
184,817,structural home inspection,Texas,Bedford,100.0,1.0,0.0,0.0,0.0,12.25,0.0,0.0,32.852971000000004,-97.130443,12.25,0.0,0.0
185,817,structural inspection,Texas,Bedford,100.0,6.0,0.0,7.0,2.0,75.08,4050.0,2100.0,32.335298333333334,-97.34313983333334,12.513333333333334,27.97016515716569,0.5185185185185185
186,817,what is checked in a home inspection,Texas,Burleson,100.0,1.0,0.0,0.0,0.0,5.78,0.0,0.0,32.532677,-97.306547,5.78,0.0,0.0
187,817,wind inspection,Texas,Bedford,100.0,1.0,0.0,0.0,0.0,12.87,0.0,0.0,32.852971000000004,-97.130443,12.87,0.0,0.0
188,830,foundation cracks,Texas,Boerne,94.72,2.0,0.0,0.0,0.0,25.28,0.0,0.0,30.130405500000002,-98.53146100000001,12.64,0.0,0.0
189,830,foundation engineer inspection,Texas,Boerne,100.0,1.0,0.0,0.0,0.0,12.24,0.0,0.0,29.85855,-98.703353,12.24,0.0,0.0
190,830,foundation engineering,Texas,Kerrville,97.428,7.0,0.0,0.0,0.0,57.510000000000005,0.0,0.0,29.6812378,-98.35853780000001,8.215714285714286,0.0,0.0
191,830,foundation structural engineer,Texas,Spring-Branch,100.0,3.0,0.0,3.0,1.0,37.87,1300.0,400.0,29.664584666666666,-98.15835499999999,12.623333333333333,10.562450488513337,0.3076923076923077
192,830,home inspection engineers,Texas,New-Braunfels,100.0,1.0,0.0,0.0,0.0,12.06,0.0,0.0,29.758816999999997,-98.191068,12.06,0.0,0.0
193,830,independent structural engineer,Texas,Bulverde,100.0,1.0,0.0,0.0,0.0,9.96,0.0,0.0,29.769465999999998,-98.453225,9.96,0.0,0.0
194,830,licensed structural engineer near me,Texas,Horseshoe-Bay,100.0,1.0,0.0,0.0,0.0,9.08,0.0,0.0,30.531339000000003,-98.37834699999999,9.08,0.0,0.0
195,830,residential engineer near me,Texas,Spring-Branch,100.0,1.0,0.0,0.0,0.0,9.21,0.0,0.0,29.893745000000003,-98.391104,9.21,0.0,0.0
196,830,residential structural engineer near me,Texas,Kerrville,100.0,1.0,3.0,0.0,0.0,12.67,0.0,0.0,30.036565000000003,-99.163069,12.67,0.0,0.0
197,830,structural calculations,Texas,Comfort,100.0,1.0,0.0,0.0,0.0,5.3,0.0,0.0,29.972310999999998,-98.904698,5.3,0.0,0.0
198,830,structural design,Texas,Blanco,100.0,1.0,0.0,0.0,0.0,12.51,0.0,0.0,30.083786,-98.476159,12.51,0.0,0.0
199,830,structural design engineer,Texas,Uvalde,100.0,1.0,0.0,0.0,0.0,8.29,0.0,0.0,29.362903999999997,-99.89813199999999,8.29,0.0,0.0
200,830,structural engineer,Texas,Bandera,96.0442857142857,41.0,5.5,4.0,1.0,408.75,1900.0,400.0,29.734616928571423,-98.5087755,9.96951219512195,0.9785932721712538,0.21052631578947367
201,830,structural engineer fees,Texas,Pipe-Creek,100.0,1.0,0.0,0.0,0.0,9.22,0.0,0.0,29.689691999999997,-98.91121600000001,9.22,0.0,0.0
202,830,structural engineer house inspection cost,Texas,Boerne,100.0,1.0,0.0,0.0,0.0,12.39,0.0,0.0,29.85855,-98.703353,12.39,0.0,0.0
203,830,structural engineer near me,Texas,Boerne,100.0,4.0,0.5,0.0,0.0,38.13,0.0,0.0,29.836353250000002,-98.68682299999999,9.5325,0.0,0.0
204,830,structural home inspection,Texas,Spring-Branch,100.0,1.0,0.0,0.0,0.0,12.39,0.0,0.0,29.893745000000003,-98.391104,12.39,0.0,0.0
205,832,architect,Texas,Houston,57.467999999999996,79.0,1.0,0.0,0.0,765.71,0.0,0.0,29.777578799999997,-95.4163173,9.692531645569622,0.0,0.0
206,832,architect cost,Texas,Houston,66.66499999999999,2.0,0.0,0.0,0.0,17.98,0.0,0.0,29.8439495,-95.402785,8.99,0.0,0.0
207,832,architects near me,Texas,Crosby,65.0,2.0,0.0,0.0,0.0,19.4,0.0,0.0,29.7074835,-95.2096895,9.7,0.0,0.0
208,832,architectural engineering,Texas,Houston,36.92,1.0,0.0,0.0,0.0,10.69,0.0,0.0,29.748202000000003,-95.468948,10.69,0.0,0.0
209,832,best structural engineer,Texas,Cypress,100.0,2.0,0.0,2.0,2.0,4.02,950.0,950.0,29.998421,-95.66736,2.01,236.31840796019904,1.0
210,832,building structural engineer,Texas,La-Porte,100.0,1.0,0.0,1.0,1.0,7.78,550.0,550.0,29.688459,-95.057379,7.78,70.69408740359897,1.0
211,832,civil structural engineer,Texas,Houston,82.2425,13.0,0.0,10.0,4.0,108.85,4300.0,1500.0,29.795164875,-95.479005875,8.373076923076923,13.780431786862655,0.3488372093023256
212,832,commercial structural engineer near me,Texas,Houston,100.0,1.0,0.0,1.0,0.0,12.8,400.0,0.0,29.689823999999998,-95.25239300000001,12.8,0.0,0.0
213,832,find a structural engineer,Texas,Cleveland,100.0,2.0,0.0,0.0,0.0,15.530000000000001,0.0,0.0,30.1633725,-95.4693795,7.765000000000001,0.0,0.0
214,832,forensic structural engineer,Texas,Houston,100.0,3.0,0.0,5.0,1.0,27.48,3200.0,500.0,29.83680133333333,-95.28962433333334,9.16,18.19505094614265,0.15625
215,832,foundation cracks,Texas,Houston,80.75857142857141,26.0,0.0,49.0,14.0,321.17999999999995,21100.0,6350.0,29.75938742857143,-95.45137176190474,12.353076923076921,19.77084500902921,0.3009478672985782
216,832,foundation engineer inspection,Texas,Houston,100.0,6.0,0.0,6.0,1.0,73.07,2800.0,500.0,29.684916999999995,-95.2995256,12.178333333333333,6.8427535240180655,0.17857142857142858
217,832,foundation engineering,Texas,Houston,90.7757142857143,39.0,8.9,31.0,10.0,400.27000000000004,14350.0,4800.0,29.802451523809527,-95.4300137142857,10.263333333333334,11.991905463811925,0.3344947735191638
218,832,foundation structural engineer,Texas,Houston,100.0,5.0,0.0,10.0,2.0,61.36000000000001,4700.0,1000.0,29.815604,-95.43117459999999,12.272000000000002,16.297262059973924,0.2127659574468085
219,832,freelance structural engineer,Texas,Houston,100.0,1.0,0.0,0.0,0.0,5.27,0.0,0.0,29.740078999999998,-95.446409,5.27,0.0,0.0
220,832,home inspection engineers,Texas,Houston,100.0,4.0,1.0,2.0,2.0,44.79,950.0,950.0,29.776750999999997,-95.46659025,11.1975,21.2100915382898,1.0
221,832,home plan designers,Texas,Houston,100.0,1.0,0.0,0.0,0.0,9.68,0.0,0.0,29.926472999999998,-95.60379,9.68,0.0,0.0
222,832,home structural engineer,Texas,Cypress,100.0,3.0,0.0,7.0,2.0,23.03,3200.0,950.0,29.7637295,-95.595446,7.676666666666667,41.25054277029961,0.296875
223,832,licensed structural engineer,Texas,Houston,95.97600000000001,8.0,0.0,4.0,3.0,73.44,4200.0,1900.0,29.8315876,-95.3235102,9.18,25.871459694989106,0.4523809523809524
224,832,local architect,Texas,Houston,78.75,2.0,0.0,0.0,0.0,9.23,0.0,0.0,30.031125000000003,-95.20184499999999,4.615,0.0,0.0
225,832,local structural engineer near me,Texas,Webster,100.0,2.0,0.0,0.0,0.0,18.4,0.0,0.0,29.539422,-95.13499499999999,9.2,0.0,0.0
226,832,nearby interior designer,Texas,Conroe,77.5,2.0,0.0,0.0,0.0,19.9,0.0,0.0,29.965761999999998,-95.5762225,9.95,0.0,0.0
227,832,professional structural engineer,Texas,Houston,50.0,2.0,0.0,0.0,0.0,19.439999999999998,0.0,0.0,29.698301,-95.544185,9.719999999999999,0.0,0.0
228,832,resident engineer,Texas,Houston,96.035,4.0,1.0,119.0,8.0,35.24,64794.0,2500.0,29.767083500000002,-95.30853,8.81,70.94211123723042,0.0385838194894589
229,832,residential architect,Texas,Houston,100.0,1.0,0.0,0.0,0.0,8.9,0.0,0.0,29.718434999999996,-95.42355500000001,8.9,0.0,0.0
230,832,residential architects near me,Texas,Tomball,75.0,2.0,0.0,0.0,0.0,18.759999999999998,0.0,0.0,29.831080500000002,-95.59852649999999,9.379999999999999,0.0,0.0
231,832,residential construction engineer,Texas,Magnolia,100.0,3.0,0.0,4.0,3.0,27.489999999999995,1350.0,1000.0,29.976399333333333,-95.50475866666666,9.163333333333332,36.376864314296114,0.7407407407407407
232,832,residential design build,Texas,Houston,55.0,1.0,0.0,0.0,0.0,9.72,0.0,0.0,29.744081,-95.487974,9.72,0.0,0.0
233,832,residential engineer near me,Texas,Houston,100.0,5.0,0.0,4.0,0.0,45.989999999999995,1500.0,0.0,29.78077975,-95.48694275,9.197999999999999,0.0,0.0
234,832,residential foundation engineer,Texas,Conroe,100.0,1.0,0.0,1.0,1.0,12.08,450.0,450.0,30.186277,-95.410662,12.08,37.25165562913907,1.0
235,832,residential structural engineer,Texas,Houston,87.03666666666668,9.0,1.0,12.0,3.0,76.09,5450.0,1450.0,29.770436666666665,-95.34964122222223,8.454444444444444,19.05638060191878,0.26605504587155965
236,832,residential structural engineer inspection,Texas,Katy,100.0,1.0,0.0,0.0,0.0,7.79,0.0,0.0,29.740677,-95.829652,7.79,0.0,0.0
237,832,residential structural engineer inspection near me,Texas,Baytown,100.0,1.0,1.0,1.0,1.0,12.38,500.0,500.0,29.789523,-94.859125,12.38,40.38772213247172,1.0
238,832,residential structural engineer near me,Texas,Kingwood,100.0,5.0,2.25,3.0,0.0,62.339999999999996,1300.0,0.0,29.757224,-95.273212,12.468,0.0,0.0
239,832,residential structural inspection,Texas,Missouri-City,100.0,4.0,2.0,4.0,1.0,46.31,2000.0,550.0,29.819129333333336,-95.135987,11.5775,11.87648456057007,0.275
240,832,small structural engineering firms,Texas,Houston,100.0,1.0,0.0,0.0,0.0,7.76,0.0,0.0,29.718434999999996,-95.42355500000001,7.76,0.0,0.0
241,832,steel structural engineer,Texas,Spring,53.33,2.0,0.0,5.0,2.0,9.06,2300.0,900.0,30.040876,-95.528914,4.53,99.33774834437085,0.391304347826087
242,832,str engineering,Texas,Houston,100.0,1.0,0.0,0.0,0.0,6.56,0.0,0.0,29.753624,-95.35981,6.56,0.0,0.0
243,832,structural analysis services,Texas,Cypress,100.0,2.0,0.0,2.0,2.0,17.03,950.0,950.0,29.9179965,-95.700557,8.515,55.7839107457428,1.0
244,832,structural building engineer,Texas,Bellaire,100.0,1.0,0.0,0.0,0.0,9.24,0.0,0.0,29.704019,-95.46090500000001,9.24,0.0,0.0
245,832,structural calculations,Texas,Houston,76.0,2.0,0.33,0.0,0.0,25.03,0.0,0.0,29.718434999999996,-95.42355500000001,12.515,0.0,0.0
246,832,structural contractors,Texas,Richmond,95.83333333333333,3.0,2.0,6.0,0.0,32.91,2750.0,0.0,29.701490666666672,-95.42496833333333,10.969999999999999,0.0,0.0
247,832,structural design,Texas,Houston,85.661875,39.0,0.0,13.0,2.0,398.39000000000004,6100.0,850.0,29.7591239375,-95.42610412499998,10.215128205128206,2.1335876904540774,0.13934426229508196
248,832,structural design companies,Texas,Missouri-City,100.0,1.0,1.0,1.0,0.0,5.75,400.0,0.0,29.600434000000003,-95.515549,5.75,0.0,0.0
249,832,structural design engineer,Texas,Houston,74.03,3.0,0.0,1.0,0.0,34.230000000000004,400.0,0.0,29.840048499999998,-95.48179999999999,11.410000000000002,0.0,0.0
250,832,structural engineer,Texas,Houston,83.40613636363639,856.0,64.31,232.0,39.0,8245.81,115994.0,19050.0,29.78556943181819,-95.39937182954542,9.632955607476635,2.3102642432944736,0.1642326327223822
251,832,structural engineer costs,Texas,Friendswood,100.0,1.0,0.0,2.0,0.0,7.98,900.0,0.0,29.515074,-95.192133,7.98,0.0,0.0
252,832,structural engineer home inspection,Texas,Houston,100.0,5.0,0.0,125.0,10.0,56.49,68494.0,4650.0,29.677649599999995,-95.1953484,11.298,82.31545406266595,0.06788915817443864
253,832,structural engineer inspection,Texas,Houston,98.005,18.0,1.0,24.0,8.0,185.95999999999998,10300.0,3400.0,29.84033375,-95.43729381249999,10.33111111111111,18.283501828350186,0.3300970873786408
254,832,structural engineer inspection cost,Texas,League-City,100.0,1.0,0.0,4.0,1.0,12.18,1900.0,500.0,29.503784999999997,-95.0873,12.18,41.050903119868636,0.2631578947368421
255,832,structural engineer inspection near me,Texas,Kingwood,0.0,1.0,0.0,8.0,2.0,6.92,3650.0,950.0,30.046777000000002,-95.22102199999999,6.92,137.28323699421966,0.2602739726027397
256,832,structural engineer near me,Texas,Houston,92.35380952380953,30.0,4.0,47.0,14.0,292.71000000000004,21100.0,7350.0,29.806117952380948,-95.41495057142858,9.757000000000001,25.110177308598953,0.34834123222748814
257,832,structural engineering companies,Texas,Houston,77.083,14.0,2.0,131.0,9.0,107.26,69094.0,3400.0,29.8074442,-95.3988593,7.661428571428572,31.698676114115234,0.04920832489072857
258,832,structural engineering consulting firms,Texas,Spring,100.0,1.0,0.0,3.0,1.0,12.28,1450.0,500.0,30.100254999999997,-95.35647900000001,12.28,40.71661237785017,0.3448275862068966
259,832,structural engineering firms,Texas,Houston,89.571,15.0,0.0,7.0,3.0,120.18,2650.0,1000.0,29.768378099999996,-95.4948962,8.012,8.320852055250457,0.37735849056603776
260,832,structural engineering services,Texas,Houston,100.0,4.0,0.0,6.0,2.0,31.72,2750.0,900.0,29.72098625,-95.5653005,7.93,28.373266078184113,0.32727272727272727
261,832,structural engineers in my area,Texas,Houston,100.0,3.0,0.0,2.0,0.0,27.07,950.0,0.0,29.985841,-95.517721,9.023333333333333,0.0,0.0
262,832,structural firm,Texas,Houston,70.0,1.0,0.0,3.0,2.0,4.82,3650.0,1350.0,29.675339,-95.479372,4.82,280.0829875518672,0.3698630136986301
263,832,structural home inspection,Texas,Houston,100.0,3.0,1.0,117.0,7.0,38.2,64044.0,2450.0,29.848157999999998,-95.28918133333333,12.733333333333334,64.13612565445025,0.03825494972206608
264,832,structural inspection,Texas,Houston,95.07696969696971,71.0,7.0,137.0,12.0,668.94,72044.0,4150.0,29.79531072727273,-95.4392671818182,9.42169014084507,6.203844888928752,0.0576036866359447
265,832,structural inspection cost,Texas,Katy,100.0,1.0,0.0,0.0,0.0,7.64,0.0,0.0,29.837571999999998,-95.733754,7.64,0.0,0.0
266,832,structural inspection near me,Texas,Magnolia,100.0,1.0,0.0,0.0,0.0,8.42,0.0,0.0,30.216858000000002,-95.647214,8.42,0.0,0.0
267,832,top structural engineering firms,Texas,Houston,100.0,4.0,0.0,3.0,0.0,49.84,1200.0,0.0,29.848054333333334,-95.46059566666666,12.46,0.0,0.0
268,832,wind inspection,Texas,Baytown,100.0,1.0,0.0,1.0,0.0,12.75,550.0,0.0,29.802460999999997,-94.970322,12.75,0.0,0.0
269,832,windstorm inspection,Texas,Houston,94.23625,81.0,12.0,33.0,12.0,569.4999999999999,14950.0,5550.0,29.731440343749995,-95.28731453125,7.030864197530863,9.74539069359087,0.3712374581939799
270,833,best structural engineer,Texas,Port-Bolivar,100.0,1.0,0.0,2.0,1.0,12.45,1250.0,550.0,29.426496000000004,-94.685696,12.45,44.17670682730924,0.44
271,833,foundation cracks,Texas,Helotes,90.86500000000001,5.0,0.0,0.0,0.0,54.92,0.0,0.0,30.019979,-98.42971,10.984,0.0,0.0
272,833,foundation engineer inspection,Texas,Helotes,100.0,2.0,0.0,0.0,0.0,22.95,0.0,0.0,29.609914,-98.746764,11.475,0.0,0.0
273,833,foundation engineering,Texas,Wylie,94.85249999999999,6.0,0.0,4.0,1.0,69.17,1300.0,450.0,30.4142455,-97.958943,11.528333333333334,6.505710568165389,0.34615384615384615
274,833,home inspection engineers,Texas,New-Caney,100.0,1.0,0.0,1.0,1.0,12.75,450.0,450.0,30.161065,-95.189809,12.75,35.294117647058826,1.0
275,833,house structure inspection,Texas,Helotes,100.0,1.0,0.0,0.0,0.0,12.29,0.0,0.0,29.609914,-98.746764,12.29,0.0,0.0
276,833,independent structural engineer,Texas,Converse,100.0,1.0,0.0,3.0,1.0,10.01,850.0,450.0,29.487773999999998,-98.291474,10.01,44.955044955044954,0.5294117647058824
277,833,licensed structural engineer,Texas,Schertz,100.0,2.0,0.0,1.0,0.0,13.34,450.0,0.0,29.547159000000004,-98.262598,6.67,0.0,0.0
278,833,resident engineer,Texas,New-Caney,100.0,1.0,0.0,1.0,1.0,7.73,450.0,450.0,30.161065,-95.189809,7.73,58.21474773609314,1.0
279,833,residential construction engineer,Texas,Port-Bolivar,100.0,1.0,0.0,2.0,1.0,7.05,1250.0,550.0,29.426496000000004,-94.685696,7.05,78.01418439716312,0.44
280,833,residential structural engineer,Texas,Schertz,100.0,1.0,0.0,1.0,0.0,10.78,450.0,0.0,29.547159000000004,-98.262598,10.78,0.0,0.0
281,833,structural design,Texas,Spicewood,100.0,1.0,0.0,0.0,0.0,12.62,0.0,0.0,30.430044,-98.112656,12.62,0.0,0.0
282,833,structural engineer,Texas,Diana,95.75999999999999,15.0,0.0,3.0,1.0,131.86,1700.0,550.0,30.528784,-97.26572428571428,8.790666666666668,4.171090550583952,0.3235294117647059
283,833,structural engineer inspection,Texas,New-Caney,100.0,1.0,0.0,1.0,1.0,2.4,450.0,450.0,30.161065,-95.189809,2.4,187.5,1.0
284,833,structural engineer near me,Texas,Tom-Bean,100.0,2.0,1.0,1.0,0.0,21.91,450.0,0.0,31.533205000000002,-97.37346,10.955,0.0,0.0
285,833,structural engineering companies,Texas,Aledo,100.0,1.0,0.0,0.0,0.0,12.22,0.0,0.0,32.695708,-97.63148199999999,12.22,0.0,0.0
286,833,structural home inspection,Texas,Spicewood,100.0,1.0,0.0,0.0,0.0,12.64,0.0,0.0,30.430044,-98.112656,12.64,0.0,0.0
287,903,commercial structural engineer near me,Texas,Daingerfield,100.0,1.0,0.0,0.0,0.0,8.88,0.0,0.0,33.020475,-94.729699,8.88,0.0,0.0
288,903,foundation engineer inspection,Texas,Greenville,100.0,1.0,0.0,0.0,0.0,12.26,0.0,0.0,33.189002,-96.108829,12.26,0.0,0.0
289,903,foundation engineering,Texas,Canton,95.5,10.0,0.0,4.0,2.0,97.36,1850.0,1250.0,32.6636215,-95.85484925,9.736,12.838948233360723,0.6756756756756757
290,903,foundation structural engineer,Texas,Ector,100.0,3.0,0.0,1.0,0.0,28.04,600.0,0.0,33.44252566666666,-95.55376,9.346666666666666,0.0,0.0
291,903,home structural engineer,Texas,Lindale,100.0,1.0,0.0,0.0,0.0,4.83,0.0,0.0,32.537896999999994,-95.435716,4.83,0.0,0.0
292,903,licensed structural engineer,Texas,Greenville,100.0,1.0,0.0,0.0,0.0,8.84,0.0,0.0,33.189002,-96.108829,8.84,0.0,0.0
293,903,local structural engineer,Texas,Quinlan,100.0,1.0,3.0,2.0,1.0,12.2,1100.0,550.0,32.9242,-96.109811,12.2,45.08196721311476,0.5
294,903,residential foundation engineer,Texas,Denison,100.0,1.0,0.0,4.0,0.0,12.77,2850.0,0.0,33.770785,-96.604061,12.77,0.0,0.0
295,903,residential structural engineer,Texas,Canton,100.0,1.0,0.0,0.0,0.0,6.9,0.0,0.0,32.516876,-95.883622,6.9,0.0,0.0
296,903,residential structural engineer inspection near me,Texas,Mabank,100.0,2.0,0.0,0.0,0.0,24.33,0.0,0.0,32.8907265,-95.366345,12.165,0.0,0.0
297,903,residential structural engineer near me,Texas,Corsicana,100.0,2.0,0.0,0.0,0.0,18.45,0.0,0.0,32.104684000000006,-96.2312885,9.225,0.0,0.0
298,903,steel structural engineer,Texas,Buffalo,100.0,1.0,0.0,0.0,0.0,8.96,0.0,0.0,31.473667,-96.009365,8.96,0.0,0.0
299,903,structural engineer,Texas,Denison,97.1904,53.0,5.0,11.0,3.0,470.0799999999999,6400.0,1850.0,32.84357116,-95.65182503999999,8.86943396226415,3.9355003403675974,0.2890625
300,903,structural engineer costs,Texas,Athens,100.0,1.0,0.0,0.0,0.0,5.45,0.0,0.0,32.244008,-95.807608,5.45,0.0,0.0
301,903,structural engineer home inspection,Texas,Mabank,100.0,1.0,0.0,0.0,0.0,12.83,0.0,0.0,32.277759,-96.10533199999999,12.83,0.0,0.0
302,903,structural engineer inspection,Texas,Mabank,100.0,2.0,1.0,2.0,1.0,18.17,1200.0,600.0,32.858477,-96.3260865,9.085,33.02146395156851,0.5
303,903,structural engineer inspection cost,Texas,Trinidad,100.0,2.0,0.0,0.0,0.0,22.619999999999997,0.0,0.0,32.782092500000005,-95.9002945,11.309999999999999,0.0,0.0
304,903,structural engineer near me,Texas,Sherman,91.0,6.0,0.0,0.0,0.0,51.489999999999995,0.0,0.0,32.838113799999995,-95.44230259999999,8.581666666666665,0.0,0.0
305,903,structural engineering services near me,Texas,Beckville,100.0,1.0,0.0,0.0,0.0,5.14,0.0,0.0,32.249318,-94.45322,5.14,0.0,0.0
306,903,structural engineers in my area,Texas,Kemp,100.0,2.0,0.0,4.0,0.0,17.990000000000002,1150.0,0.0,32.767332499999995,-95.92662899999999,8.995000000000001,0.0,0.0
307,903,structural inspection,Texas,New-Boston,100.0,3.0,0.0,0.0,0.0,27.119999999999997,0.0,0.0,32.763244333333326,-94.821665,9.04,0.0,0.0
308,903,structural inspection near me,Texas,De-Kalb,100.0,2.0,0.0,0.0,0.0,16.18,0.0,0.0,33.481465,-94.5330405,8.09,0.0,0.0
309,903,windstorm inspection,Texas,Blossom,100.0,1.0,0.0,0.0,0.0,9.42,0.0,0.0,33.683869,-95.34473299999999,9.42,0.0,0.0
310,936,architect,Texas,Conroe,58.61,1.0,0.0,0.0,0.0,9.42,0.0,0.0,30.307375,-95.438548,9.42,0.0,0.0
311,936,foundation cracks,Texas,New-Waverly,100.0,1.0,0.0,0.0,0.0,12.73,0.0,0.0,30.558321000000003,-95.436252,12.73,0.0,0.0
312,936,foundation engineering,Texas,Trinity,97.5,5.0,1.0,2.0,1.0,37.199999999999996,1100.0,500.0,30.596772199999997,-95.4491716,7.4399999999999995,13.440860215053766,0.45454545454545453
313,936,foundation structural engineer,Texas,Livingston,100.0,1.0,0.0,0.0,0.0,11.93,0.0,0.0,30.717792,-94.817231,11.93,0.0,0.0
314,936,home inspection engineers,Texas,Montgomery,100.0,2.0,1.0,4.0,0.0,25.08,2500.0,0.0,30.3859125,-95.708139,12.54,0.0,0.0
315,936,pe civil structural,Texas,Goodrich,100.0,1.0,0.0,0.0,0.0,12.55,0.0,0.0,30.574472999999998,-94.911179,12.55,0.0,0.0
316,936,residential engineer near me,Texas,San-Augustine,100.0,1.0,0.0,0.0,0.0,4.08,0.0,0.0,31.483596999999996,-94.131501,4.08,0.0,0.0
317,936,residential structural engineer,Texas,Montgomery,100.0,2.0,1.0,1.0,0.0,16.0,600.0,0.0,30.576206,-95.4019515,8.0,0.0,0.0
318,936,structural design companies,Texas,Conroe,100.0,1.0,0.0,0.0,0.0,8.34,0.0,0.0,30.285840000000004,-95.312397,8.34,0.0,0.0
319,936,structural engineer,Texas,Conroe,93.12142857142858,22.0,5.0,5.0,1.0,156.15,2900.0,500.0,30.380044571428577,-95.61131914285714,7.097727272727273,3.202049311559398,0.1724137931034483
320,936,structural engineer calculations,Texas,Magnolia,100.0,1.0,0.0,0.0,0.0,8.95,0.0,0.0,30.156257,-95.74925999999999,8.95,0.0,0.0
321,936,structural engineer inspection,Texas,Conroe,100.0,2.0,0.0,0.0,0.0,6.0600000000000005,0.0,0.0,30.619756000000002,-95.6088705,3.0300000000000002,0.0,0.0
322,936,structural engineer near me,Texas,Lufkin,100.0,6.0,1.0,5.0,1.0,53.03,2700.0,450.0,30.870112999999996,-95.116455,8.838333333333333,8.48576277578729,0.16666666666666666
323,936,structural engineering services,Texas,Willis,100.0,1.0,0.0,0.0,0.0,8.19,0.0,0.0,30.438807,-95.533229,8.19,0.0,0.0
324,936,structural engineers in my area,Texas,Livingston,100.0,1.0,0.0,0.0,0.0,9.36,0.0,0.0,30.717792,-94.817231,9.36,0.0,0.0
325,936,structural inspection,Texas,Conroe,100.0,1.0,0.0,2.0,1.0,12.93,1000.0,500.0,30.307375,-95.438548,12.93,38.669760247486465,0.5
326,936,windstorm inspection,Texas,Conroe,100.0,2.0,0.0,2.0,1.0,6.91,1000.0,500.0,30.3893745,-95.40120999999999,3.455,72.3589001447178,0.5
327,940,foundation cracks,Texas,Denton,89.285,2.0,0.0,0.0,0.0,21.44,0.0,0.0,33.5685555,-97.794903,10.72,0.0,0.0
328,940,foundation engineer inspection,Texas,Aubrey,100.0,1.0,0.0,0.0,0.0,12.3,0.0,0.0,33.273603,-96.990042,12.3,0.0,0.0
329,940,foundation engineering,Texas,Decatur,96.25,8.0,0.0,3.0,0.0,70.12,1500.0,0.0,33.22164683333333,-97.83241116666666,8.765,0.0,0.0
330,940,home inspection,Texas,Denton,80.95,2.0,0.0,0.0,0.0,16.66,0.0,0.0,33.192632,-97.129266,8.33,0.0,0.0
331,940,home inspector,Texas,Denton,82.0,1.0,0.0,0.0,0.0,6.39,0.0,0.0,33.231552,-97.109871,6.39,0.0,0.0
332,940,licensed structural engineer near me,Texas,Wichita-Falls,100.0,1.0,0.0,0.0,0.0,5.24,0.0,0.0,33.894923,-98.54374200000001,5.24,0.0,0.0
333,940,residential structural engineer inspection near me,Texas,Wichita-Falls,100.0,2.0,0.0,0.0,0.0,18.05,0.0,0.0,33.864528,-98.491011,9.025,0.0,0.0
334,940,structural engineer,Texas,Bowie,93.53888888888888,14.0,0.0,0.0,0.0,120.97,0.0,0.0,33.494922888888894,-97.82714244444446,8.640714285714285,0.0,0.0
335,940,structural engineer inspection,Texas,Mineral-Wells,100.0,3.0,0.0,0.0,0.0,37.45,0.0,0.0,33.332065,-98.3089085,12.483333333333334,0.0,0.0
336,940,structural engineer near me,Texas,Forestburg,100.0,2.0,0.0,0.0,0.0,24.9,0.0,0.0,33.503014,-97.52950899999999,12.45,0.0,0.0
337,940,structural engineering companies,Texas,Gainesville,100.0,1.0,0.0,0.0,0.0,1.64,0.0,0.0,33.661602,-97.176369,1.64,0.0,0.0
338,940,structural inspection,Texas,Wichita-Falls,100.0,3.0,0.0,0.0,0.0,13.54,0.0,0.0,33.8797255,-98.51737650000001,4.513333333333333,0.0,0.0
339,979,civil structural engineer,Texas,College-Station,75.0,1.0,0.0,1.0,0.0,5.47,850.0,0.0,30.609092999999998,-96.32598399999999,5.47,0.0,0.0
340,979,foundation cracks,Texas,Bryan,88.0,1.0,0.0,0.0,0.0,13.78,0.0,0.0,30.661252,-96.322614,13.78,0.0,0.0
341,979,foundation engineering,Texas,El-Campo,98.125,7.0,0.0,1.0,0.0,46.56,600.0,0.0,29.837504166666672,-96.17803116666666,6.651428571428572,0.0,0.0
342,979,foundation structural engineer,Texas,Sealy,100.0,1.0,0.0,1.0,0.0,12.45,600.0,0.0,29.780109000000003,-96.181158,12.45,0.0,0.0
343,979,home inspection engineers,Texas,Angleton,100.0,1.0,0.0,0.0,0.0,12.1,0.0,0.0,29.174921,-95.450088,12.1,0.0,0.0
344,979,home structural engineer,Texas,Lake-Jackson,100.0,1.0,0.0,0.0,0.0,6.04,0.0,0.0,29.052739000000003,-95.474351,6.04,0.0,0.0
345,979,resident engineer,Texas,Bryan,100.0,1.0,0.0,0.0,0.0,5.45,0.0,0.0,30.681053000000002,-96.38606700000001,5.45,0.0,0.0
346,979,residential construction engineer,Texas,Lake-Jackson,100.0,1.0,0.0,0.0,0.0,6.66,0.0,0.0,29.052739000000003,-95.474351,6.66,0.0,0.0
347,979,residential engineer near me,Texas,Bryan,100.0,1.0,0.0,0.0,0.0,9.24,0.0,0.0,30.661252,-96.322614,9.24,0.0,0.0
348,979,structural design,Texas,Bryan,82.7,2.0,0.0,1.0,0.0,25.18,850.0,0.0,30.645073,-96.3560255,12.59,0.0,0.0
349,979,structural engineer,Texas,Bellville,90.0576923076923,41.0,1.0,3.0,1.0,320.91999999999996,2300.0,750.0,29.92909161538461,-96.16543015384617,7.827317073170731,2.3370310357721555,0.32608695652173914
350,979,structural engineer inspection,Texas,Needville,100.0,2.0,0.0,0.0,0.0,8.52,0.0,0.0,29.383067999999998,-95.806472,4.26,0.0,0.0
351,979,structural engineer near me,Texas,Bellville,100.0,5.0,0.0,0.0,0.0,53.760000000000005,0.0,0.0,29.945864,-96.01312566666667,10.752,0.0,0.0
352,979,structural home inspection,Texas,Carmine,100.0,1.0,0.0,0.0,0.0,12.62,0.0,0.0,30.164042,-96.71828000000001,12.62,0.0,0.0
353,979,windstorm inspection,Texas,Bay-City,98.57333333333332,22.0,3.0,2.0,0.0,102.62,1250.0,0.0,29.25877216666667,-95.68390683333332,4.664545454545455,0.0,0.0
