State,AreaCode,Keyword,Impression Share (IS),Clicks,# Call Conversions,# Invoiced,# of Payments,$ Ad Cost,CPC,$ Invoiced,$ Received,$ Revenue / $ Cost,$ Paid / $ Invoiced ,Latitude,Longitude
Texas,210,best structural engineer,100.00,1,0,0,0,12.46,12.46,0,0,0.00,0.00,29.370752,-98.593203
Texas,210,civil structural engineer,100.00,1,0,0,0,12.08,12.08,0,0,0.00,0.00,29.546515,-98.557207
Texas,210,foundation cracks,82.84,6,0,4,1,72.62,12.10,1650,400,5.51,0.24,29.5203202,-98.4252274
Texas,210,foundation engineer inspection,100.00,6,0,2,0,74.09,12.35,800,0,0.00,0.00,29.5486646,-98.4952754
Texas,210,foundation engineering,91.64,38,8,4,2,437.53,11.51,1550,750,1.71,0.48,29.4764131,-98.511943
Texas,210,home inspection engineers,100.00,2,0,3,2,24.15,12.08,1500,1050,43.48,0.70,29.436433,-98.6742425
Texas,210,home structural engineer,100.00,2,0,0,0,20.85,10.43,0,0,0.00,0.00,29.493824,-98.580381
Texas,210,licensed structural engineer,100.00,1,0,0,0,8.84,8.84,0,0,0.00,0.00,29.345246,-98.443874
Texas,210,professional structural engineer,100.00,1,0,0,0,12.13,12.13,0,0,0.00,0.00,29.422124,-98.525978
Texas,210,resident engineer,100.00,1,0,0,0,12.61,12.61,0,0,0.00,0.00,29.474147,-98.348083
Texas,210,residential engineer near me,100.00,1,0,1,0,9.11,9.11,400,0,0.00,0.00,29.502729,-98.664897
Texas,210,residential foundation engineer,100.00,2,0,0,0,22.47,11.24,0,0,0.00,0.00,29.4668685,-98.411042
Texas,210,residential structural engineer,90.63,10,0,7,2,97.77,9.78,2950,850,8.69,0.29,29.48333617,-98.50503817
Texas,210,residential structural engineer inspection,100.00,1,0,0,0,12.76,12.76,0,0,0.00,0.00,29.525969,-98.277499
Texas,210,steel structural engineer,55.00,1,0,0,0,7.34,7.34,0,0,0.00,0.00,29.38799,-98.526028
Texas,210,structural building engineer,100.00,1,0,0,0,9.27,9.27,0,0,0.00,0.00,29.525969,-98.277499
Texas,210,structural calculations,100.00,1,0,0,0,7.65,7.65,0,0,0.00,0.00,29.525969,-98.277499
Texas,210,structural design,80.63,1,0,5,1,12.92,12.92,2050,400,30.96,0.20,29.585862,-98.406811
Texas,210,structural engineer,89.56,214,30,19,8,2311.54,10.80,7550,2950,1.28,0.39,29.49700804,-98.48833429
Texas,210,structural engineer costs,100.00,1,0,3,2,9.39,9.39,1500,1050,111.82,0.70,29.401093,-98.730806
Texas,210,structural engineer inspection,100.00,2,1,0,0,21.58,10.79,0,0,0.00,0.00,29.4668685,-98.411042
Texas,210,structural engineer inspection cost,100.00,1,0,0,0,12.69,12.69,0,0,0.00,0.00,29.469011,-98.797801
Texas,210,structural engineer near me,88.75,2,0,0,0,24.77,12.39,0,0,0.00,0.00,29.4449255,-98.547665
Texas,210,structural engineering companies,100.00,1,0,0,0,12.24,12.24,0,0,0.00,0.00,29.404404,-98.505028
Texas,210,structural engineering firms,100.00,5,0,0,0,61.60,12.32,0,0,0.00,0.00,29.426325,-98.468087
Texas,210,structural engineering firms near me,100.00,1,3,0,0,12.32,12.32,0,0,0.00,0.00,29.370752,-98.593203
Texas,210,structural inspection,100.00,1,0,0,0,3.80,3.80,0,0,0.00,0.00,29.406624,-98.630303
Texas,210,top structural engineering firms,100.00,1,0,0,0,12.80,12.80,0,0,0.00,0.00,29.622289,-98.626164
Texas,210,windstorm inspection,98.34,3,0,0,0,15.21,5.07,0,0,0.00,0.00,29.454008,-98.5405425
Texas,325,foundation cracks,100.00,1,0,0,0,8.33,8.33,0,0,0.00,0.00,31.706204,-99.151374
Texas,325,structural engineer,100.00,2,0,0,0,21.57,10.79,0,0,0.00,0.00,30.691484,-99.273312
Texas,361,find a structural engineer,100.00,1,0,0,0,2.89,2.89,0,0,0.00,0.00,28.609718,-96.609368
Texas,361,foundation engineering,100.00,3,3,1,0,26.73,8.91,500,0,0.00,0.00,28.28237767,-97.13811133
Texas,361,home inspection engineers,100.00,2,0,0,0,15.27,7.64,0,0,0.00,0.00,28.9347175,-96.823649
Texas,361,local structural engineer near me,100.00,2,0,0,0,17.72,8.86,0,0,0.00,0.00,28.1386365,-97.167054
Texas,361,residential engineer near me,100.00,2,1,0,0,18.31,9.16,0,0,0.00,0.00,28.321597,-97.2905085
Texas,361,residential structural engineer inspection,100.00,1,0,0,0,13.00,13.00,0,0,0.00,0.00,29.453329,-97.191865
Texas,361,structural calculations,100.00,2,0,0,0,9.96,4.98,0,0,0.00,0.00,27.809478,-97.522896
Texas,361,structural design,100.00,1,0,0,0,2.34,2.34,0,0,0.00,0.00,28.804947,-96.984711
Texas,361,structural engineer,96.00,20,0,2,0,138.21,6.91,1200,0,0.00,0.00,28.481442,-97.13450971
Texas,361,structural engineer near me,100.00,1,0,0,0,12.07,12.07,0,0,0.00,0.00,28.804947,-96.984711
Texas,361,wind inspection,100.00,3,0,0,0,24.19,8.06,0,0,0.00,0.00,28.03475567,-97.07264767
Texas,361,windstorm inspection,98.67,30,3,1,0,148.84,4.96,500,0,0.00,0.00,28.17837892,-97.26068008
Texas,409,civil structural engineer,100.00,1,0,0,0,8.11,8.11,0,0,0.00,0.00,29.310535,-94.775768
Texas,409,find a structural engineer,100.00,1,0,0,0,12.90,12.90,0,0,0.00,0.00,30.073053,-94.105486
Texas,409,foundation cracks,100.00,1,0,0,0,12.55,12.55,0,0,0.00,0.00,30.086269,-94.128303
Texas,409,foundation engineering,96.00,5,2,1,0,36.50,7.30,550,0,0.00,0.00,29.957931,-94.3003248
Texas,409,home structural engineer,100.00,1,0,0,0,9.94,9.94,0,0,0.00,0.00,30.146124,-94.160613
Texas,409,resident engineer,100.00,2,0,1,0,21.03,10.52,550,0,0.00,0.00,29.338862,-94.9151145
Texas,409,residential engineer near me,55.00,1,0,1,0,8.95,8.95,800,0,0.00,0.00,29.881613,-93.940858
Texas,409,residential structural engineer,100.00,2,1,1,0,19.16,9.58,900,0,0.00,0.00,29.942,-94.058511
Texas,409,structural design,100.00,1,0,1,0,4.69,4.69,850,0,0.00,0.00,29.947516,-93.918571
Texas,409,structural engineer,93.09,58,9,11,1,370.05,6.38,8050,500,1.35,0.06,29.82441159,-94.42270355
Texas,409,structural engineer fees,100.00,1,0,1,0,7.99,7.99,900,0,0.00,0.00,29.985971,-93.955847
Texas,409,structural engineer inspection,100.00,1,0,3,0,11.01,11.01,1642.5,0,0.00,0.00,29.364468,-95.131078
Texas,409,structural engineer inspection cost,100.00,1,0,1,0,3.37,3.37,800,0,0.00,0.00,29.881613,-93.940858
Texas,409,structural engineer inspection near me,100.00,1,1,0,0,12.63,12.63,0,0,0.00,0.00,30.01444,-93.828241
Texas,409,structural engineer near me,93.13,5,0,1,0,46.90,9.38,550,0,0.00,0.00,29.86453225,-94.286742
Texas,409,structural engineering companies,100.00,1,0,0,0,7.96,7.96,0,0,0.00,0.00,29.310535,-94.775768
Texas,409,structural inspection,100.00,1,0,0,0,7.60,7.60,0,0,0.00,0.00,30.086269,-94.128303
Texas,409,wind inspection,100.00,1,1,0,0,2.49,2.49,0,0,0.00,0.00,29.391397,-94.920149
Texas,409,windstorm inspection,97.94,42,8,11,1,223.15,5.31,8300,500,2.24,0.06,29.77875526,-94.40551337
Texas,469,american structural engineers,100.00,1,0,0,0,5.11,5.11,0,0,0.00,0.00,32.960047,-96.838522
Texas,469,best structural engineer,70.00,1,0,2,0,7.72,7.72,450,0,0.00,0.00,33.16313,-96.790193
Texas,469,best structural engineering firms,100.00,1,0,0,0,12.69,12.69,0,0,0.00,0.00,33.179984,-96.585712
Texas,469,forensic structural engineer,100.00,4,0,12,0,47.66,11.92,8510,0,0.00,0.00,33.0753515,-96.695897
Texas,469,foundation cracks,85.98,22,1,7,0,266.98,12.14,2900,0,0.00,0.00,32.97645264,-96.73463564
Texas,469,foundation engineer inspection,100.00,8,0,5,1,99.96,12.50,2400,450,4.50,0.19,32.88677286,-96.84178671
Texas,469,foundation engineering,86.73,63,6.5,15,2,723.77,11.49,6950,950,1.31,0.14,32.899484,-96.77936343
Texas,469,foundation structural engineer,100.00,4,1,8,1,50.11,12.53,5400,400,7.98,0.07,33.03198925,-96.7344975
Texas,469,freelance structural engineer,100.00,1,0,0,0,3.35,3.35,0,0,0.00,0.00,32.902679,-96.793393
Texas,469,home inspection,64.33,21,2,0,0,237.60,11.31,0,0,0.00,0.00,32.89999356,-96.76437378
Texas,469,home inspection class,92.00,6,0,0,0,63.39,10.57,0,0,0.00,0.00,33.0133064,-96.784353
Texas,469,home inspection engineers,100.00,4,3,3,0,50.33,12.58,750,0,0.00,0.00,32.907243,-96.68195625
Texas,469,home inspection services,100.00,1,0,0,0,6.94,6.94,0,0,0.00,0.00,33.16313,-96.790193
Texas,469,home inspector,65.53,19,3,0,0,210.57,11.08,0,0,0.00,0.00,32.85699082,-96.81138894
Texas,469,home inspectors near me,71.46,4,0,0,0,43.48,10.87,0,0,0.00,0.00,33.000866,-96.703145
Texas,469,home structural engineer,100.00,3,1,0,0,25.52,8.51,0,0,0.00,0.00,32.95146233,-96.75184233
Texas,469,house inspection,56.22,3,0,0,0,40.66,13.55,0,0,0.00,0.00,32.97794433,-96.85800167
Texas,469,house structure inspection,100.00,1,0,0,0,12.77,12.77,0,0,0.00,0.00,33.03271,-97.06007
Texas,469,i need a structural engineer,100.00,1,0,0,0,9.74,9.74,0,0,0.00,0.00,32.880196,-96.651555
Texas,469,licensed structural engineer,100.00,1,0,0,0,8.59,8.59,0,0,0.00,0.00,32.660862,-96.840948
Texas,469,local structural engineer,100.00,1,0,0,0,12.57,12.57,0,0,0.00,0.00,32.439871,-96.678051
Texas,469,local structural engineer near me,100.00,1,0,0,0,9.00,9.00,0,0,0.00,0.00,32.743178,-96.4549
Texas,469,pe civil structural,100.00,1,0,0,0,12.63,12.63,0,0,0.00,0.00,32.66459,-97.096476
Texas,469,professional structural engineer,100.00,3,0,1,0,32.52,10.84,550,0,0.00,0.00,32.95691,-96.86812667
Texas,469,resident engineer,76.11,3,1,4,2,21.88,7.29,1950,950,43.42,0.49,32.97458667,-96.81291133
Texas,469,residential engineer near me,100.00,2,1,0,0,17.80,8.90,0,0,0.00,0.00,32.833332,-96.741575
Texas,469,residential foundation engineer,92.50,3,0,4,0,34.91,11.64,1650,0,0.00,0.00,32.93007767,-96.80490067
Texas,469,residential structural engineer,86.71,11,1,21,2,118.48,10.77,11210,900,7.60,0.08,33.02049322,-96.80223456
Texas,469,residential structural engineer inspection,100.00,1,0,0,0,12.27,12.27,0,0,0.00,0.00,32.786796,-96.819971
Texas,469,residential structural engineer inspection near me,100.00,1,0.33,1,1,12.85,12.85,450,450,35.02,1.00,32.942051,-96.31166
Texas,469,residential structural engineer near me,100.00,1,0,8,1,12.95,12.95,3650,550,42.47,0.15,33.070183,-96.917772
Texas,469,residential structural inspection,100.00,3,0,1,1,35.18,11.73,450,450,12.79,1.00,32.98124467,-96.65080033
Texas,469,small structural engineering firms,100.00,1,0,0,0,12.62,12.62,0,0,0.00,0.00,32.968973,-96.580671
Texas,469,structural analysis engineer,67.14,1,0,0,0,12.42,12.42,0,0,0.00,0.00,32.770635,-96.746362
Texas,469,structural contractors,100.00,1,0,0,0,10.99,10.99,0,0,0.00,0.00,33.050164,-96.87454
Texas,469,structural design,84.87,18,0,4,1,183.60,10.20,1450,450,2.45,0.31,32.94599857,-96.74356071
Texas,469,structural design consultants,100.00,1,0,0,0,5.64,5.64,0,0,0.00,0.00,32.811813,-96.812898
Texas,469,structural design engineer,87.15,2,0,0,0,17.83,8.92,0,0,0.00,0.00,32.660438,-96.8770225
Texas,469,structural engineer,87.23,622,54.7,62,10,6292.34,10.12,31760,5200,0.83,0.16,32.87164311,-96.7846224
Texas,469,structural engineer costs,100.00,1,0,0,0,3.48,3.48,0,0,0.00,0.00,32.758408,-96.301323
Texas,469,structural engineer fees,100.00,1,0,1,1,7.10,7.10,550,550,77.46,1.00,32.325881,-96.588238
Texas,469,structural engineer home inspection,100.00,1,0,0,0,12.70,12.70,0,0,0.00,0.00,33.3555,-96.516313
Texas,469,structural engineer inspection,97.52,29,3,25,1,319.87,11.03,14560,450,1.41,0.03,32.96128455,-96.7029495
Texas,469,structural engineer inspection cost,97.43,5,1,14,0,53.76,10.75,8960,0,0.00,0.00,33.0340454,-96.8123266
Texas,469,structural engineer inspection near me,100.00,1,0,12,0,12.12,12.12,8510,0,0.00,0.00,33.245817,-96.63072
Texas,469,structural engineer near me,99.57,20,2.66,7,2,232.23,11.61,3500,900,3.88,0.26,32.89937254,-96.76736915
Texas,469,structural engineering companies,100.00,5,0,2,0,54.79,10.96,1200,0,0.00,0.00,32.789745,-96.76781675
Texas,469,structural engineering firms,87.46,2,0,0,0,25.30,12.65,0,0,0.00,0.00,32.902679,-96.793393
Texas,469,structural engineering services,100.00,4,0,0,0,38.82,9.71,0,0,0.00,0.00,33.092407,-96.63054333
Texas,469,structural home inspection,100.00,1,0,0,0,12.53,12.53,0,0,0.00,0.00,32.792496,-96.772763
Texas,469,structural inspection,96.05,19,1,15,3,214.22,11.27,6750,2000,9.34,0.30,32.89130387,-96.8127558
Texas,469,structural inspection cost,100.00,1,0,0,0,10.06,10.06,0,0,0.00,0.00,32.617663,-96.778058
Texas,469,what is checked in a home inspection,100.00,1,0,0,0,6.58,6.58,0,0,0.00,0.00,32.897841,-96.55037
Texas,469,wind inspection,100.00,1,0,0,0,8.41,8.41,0,0,0.00,0.00,32.802127,-96.788853
Texas,469,windstorm inspection,100.00,1,0,0,0,5.43,5.43,0,0,0.00,0.00,32.770635,-96.746362
Texas,512,find a structural engineer,100.00,1,0,9,1,11.93,11.93,4300,400,33.53,0.09,30.43963,-97.594687
Texas,512,forensic structural engineer,100.00,1,0,1,0,7.51,7.51,400,0,0.00,0.00,30.310782,-97.722759
Texas,512,foundation cracks,88.58,16,1,12,3,194.43,12.15,5550,1200,6.17,0.22,30.49108856,-97.78533722
Texas,512,foundation engineer inspection,100.00,1,0,1,0,12.51,12.51,0,0,0.00,0.00,30.078514,-97.838012
Texas,512,foundation engineering,90.49,15,1.83,8,4,137.79,9.19,2850,1700,12.34,0.60,30.31673682,-97.77180564
Texas,512,freelance structural engineer,100.00,1,0,1,0,12.31,12.31,400,0,0.00,0.00,30.17842,-97.888662
Texas,512,home structural engineer,100.00,3,1,1,0,18.68,6.23,600,0,0.00,0.00,30.591989,-97.365929
Texas,512,pe civil structural,100.00,1,0,3,0,8.71,8.71,1350,0,0.00,0.00,29.999103,-97.828207
Texas,512,professional structural engineer,100.00,1,0,1,0,12.90,12.90,0,0,0.00,0.00,30.289963,-97.714696
Texas,512,qualified structural engineer,100.00,1,0,3,0,4.84,4.84,1350,0,0.00,0.00,29.999103,-97.828207
Texas,512,resident engineer,62.66,1,0,0,0,11.76,11.76,0,0,0.00,0.00,30.351538,-97.732571
Texas,512,residential engineer near me,100.00,2,0,3,2,15.80,7.90,1350,900,56.96,0.67,30.460242,-97.724898
Texas,512,residential structural engineer,98.72,1,0,0,0,12.95,12.95,0,0,0.00,0.00,30.351538,-97.732571
Texas,512,residential structural engineer near me,100.00,8,0,10,1,98.34,12.29,4600,400,4.07,0.09,30.50130033,-97.65509533
Texas,512,structural calculations,100.00,1,0,0,0,9.09,9.09,0,0,0.00,0.00,30.230506,-97.714185
Texas,512,structural contractors,55.00,1,0,1,1,7.81,7.81,400,400,51.22,1.00,30.304274,-97.685715
Texas,512,structural design,81.33,9,1,2,1,95.72,10.64,800,400,4.18,0.50,30.3521738,-97.6764104
Texas,512,structural design engineer,89.33,3,0,3,0,27.32,9.11,1350,0,0.00,0.00,30.27444133,-97.76027267
Texas,512,structural engineer,89.05,359,33.92,43,12,3642.68,10.15,20650,5600,1.54,0.27,30.3925905,-97.80531371
Texas,512,structural engineer inspection,100.00,2,0,2,1,25.04,12.52,900,500,19.97,0.56,30.4474785,-97.6890865
Texas,512,structural engineer near me,96.50,12,1.75,8,2,117.94,9.83,5500,1050,8.90,0.19,30.44444538,-97.886323
Texas,512,structural engineering firms,98.00,2,1,1,0,18.18,9.09,400,0,0.00,0.00,30.2363765,-97.8135895
Texas,512,structural firm,91.00,2,0,1,0,21.80,10.90,300,0,0.00,0.00,30.4277435,-97.7783855
Texas,512,structural home inspection,100.00,1,0,3,0,9.51,9.51,1200,0,0.00,0.00,30.206851,-97.797384
Texas,512,structural inspection,94.00,6,0,4,0,56.51,9.42,1600,0,0.00,0.00,30.2774965,-97.76392083
Texas,512,top structural engineering firms,100.00,1,0,0,0,12.36,12.36,0,0,0.00,0.00,30.294333,-97.738517
Texas,817,best structural engineer,100.00,2,0.33,1,0,25.36,12.68,450,0,0.00,0.00,32.807187,-97.4848605
Texas,817,foundation cracks,72.06,6,0,1,0,76.23,12.71,400,0,0.00,0.00,32.816009,-97.25353925
Texas,817,foundation engineer inspection,95.25,11,0,2,2,124.59,11.33,800,800,6.42,1.00,32.66640125,-97.41222663
Texas,817,foundation engineering,94.60,30,6,3,2,332.68,11.09,1200,800,2.40,0.67,32.5547114,-97.33098747
Texas,817,foundation structural engineer,55.00,1,0,0,0,12.93,12.93,0,0,0.00,0.00,32.742058,-97.38173
Texas,817,home inspection,66.21,10,0,0,0,109.74,10.97,0,0,0.00,0.00,32.74353543,-97.31420829
Texas,817,home inspection class,93.57,2,0,0,0,38.65,19.33,0,0,0.00,0.00,32.58412,-97.227688
Texas,817,home inspection company,100.00,1,0,0,0,6.86,6.86,0,0,0.00,0.00,32.859685,-97.291523
Texas,817,home inspection engineers,100.00,2,0,3,2,23.18,11.59,1200,800,34.51,0.67,32.784405,-97.4951435
Texas,817,home inspector,72.70,10,1,0,0,115.43,11.54,0,0,0.00,0.00,32.74975162,-97.421466
Texas,817,home structural engineer,100.00,2,0,1,0,15.42,7.71,450,0,0.00,0.00,32.8221705,-97.1392755
Texas,817,house inspection,93.33,4,0,0,0,26.58,6.65,0,0,0.00,0.00,32.87329325,-97.35036125
Texas,817,how do i get a home inspection,100.00,1,0,0,0,6.98,6.98,0,0,0.00,0.00,32.886201,-97.207731
Texas,817,licensed structural engineer,100.00,1,0,0,0,7.71,7.71,0,0,0.00,0.00,31.051688,-97.499909
Texas,817,local structural engineer near me,100.00,1,0,0,0,8.93,8.93,0,0,0.00,0.00,32.667539,-97.416806
Texas,817,professional structural engineer,100.00,1,0,0,0,12.97,12.97,0,0,0.00,0.00,32.924005,-97.225146
Texas,817,resident engineer,88.75,4,0,1,0,47.96,11.99,450,0,0.00,0.00,32.800734,-97.280183
Texas,817,residential construction engineer,100.00,2,0,2,1,10.69,5.35,1050,500,46.77,0.48,32.237459,-97.3441565
Texas,817,residential engineer near me,100.00,4,0,1,0,27.76,6.94,400,0,0.00,0.00,32.80948033,-97.28645867
Texas,817,residential structural engineer,98.64,9,0,2,0,102.94,11.44,850,0,0.00,0.00,32.8050825,-97.18549583
Texas,817,residential structural engineer inspection near me,100.00,3,0,0,0,37.90,12.63,0,0,0.00,0.00,31.146425,-97.6971215
Texas,817,residential structural engineer near me,100.00,6,1,4,3,74.82,12.47,1650,1200,16.04,0.73,32.5637605,-97.2118765
Texas,817,residential structural inspection,100.00,1,0,4,2,12.11,12.11,3250,2100,173.41,0.65,32.803436,-97.267376
Texas,817,str engineering,100.00,1,0,0,0,3.76,3.76,0,0,0.00,0.00,32.282235,-98.196717
Texas,817,structural analysis engineer,100.00,1,0,1,0,10.66,10.66,450,0,0.00,0.00,32.85941,-97.178636
Texas,817,structural calculations,100.00,1,0,1,0,8.59,8.59,400,0,0.00,0.00,32.682609,-97.782556
Texas,817,structural contractors,100.00,2,0,0,0,16.48,8.24,0,0,0.00,0.00,32.662513,-97.164024
Texas,817,structural design,84.30,8,0,4,2,83.28,10.41,3250,2100,25.22,0.65,32.863682,-97.1598508
Texas,817,structural engineer,90.89,332,30.17,28,11,3315.29,9.99,13400,5750,1.73,0.43,32.32410456,-97.34664758
Texas,817,structural engineer costs,90.00,1,0,2,2,11.76,11.76,800,800,68.03,1.00,32.886201,-97.207731
Texas,817,structural engineer fees,100.00,1,0,1,0,9.30,9.30,400,0,0.00,0.00,32.860285,-97.086028
Texas,817,structural engineer home inspection,100.00,1,0,0,0,12.92,12.92,0,0,0.00,0.00,32.742058,-97.38173
Texas,817,structural engineer inspection,100.00,12,0,9,5,139.99,11.67,3800,2550,18.22,0.67,32.72914836,-97.48793818
Texas,817,structural engineer inspection cost,100.00,2,0,3,2,22.41,11.21,1200,800,35.70,0.67,32.858429,-97.1764445
Texas,817,structural engineer inspection near me,100.00,1,0,4,2,12.51,12.51,3250,2100,167.87,0.65,32.803436,-97.267376
Texas,817,structural engineer near me,99.59,19,3,9,4,194.48,10.24,5300,2900,14.91,0.55,32.49417076,-97.38377347
Texas,817,structural engineering companies,100.00,2,0,4,0,18.05,9.03,2650,0,0.00,0.00,32.6676095,-97.622443
Texas,817,structural engineering firms,83.36,4,0,0,0,45.03,11.26,0,0,0.00,0.00,32.832614,-96.849082
Texas,817,structural engineering services,100.00,1,0,0,0,12.86,12.86,0,0,0.00,0.00,31.574722,-97.127134
Texas,817,structural engineering services near me,100.00,1,0,1,0,5.61,5.61,400,0,0.00,0.00,32.682609,-97.782556
Texas,817,structural firm,100.00,1,0,0,0,12.57,12.57,0,0,0.00,0.00,32.282235,-98.196717
Texas,817,structural home inspection,100.00,1,0,0,0,12.25,12.25,0,0,0.00,0.00,32.852971,-97.130443
Texas,817,structural inspection,100.00,6,0,7,2,75.08,12.51,4050,2100,27.97,0.52,32.33529833,-97.34313983
Texas,817,what is checked in a home inspection,100.00,1,0,0,0,5.78,5.78,0,0,0.00,0.00,32.532677,-97.306547
Texas,817,wind inspection,100.00,1,0,0,0,12.87,12.87,0,0,0.00,0.00,32.852971,-97.130443
Texas,830,foundation cracks,94.72,2,0,0,0,25.28,12.64,0,0,0.00,0.00,30.1304055,-98.531461
Texas,830,foundation engineer inspection,100.00,1,0,0,0,12.24,12.24,0,0,0.00,0.00,29.85855,-98.703353
Texas,830,foundation engineering,97.43,7,0,0,0,57.51,8.22,0,0,0.00,0.00,29.6812378,-98.3585378
Texas,830,foundation structural engineer,100.00,3,0,3,1,37.87,12.62,1300,400,10.56,0.31,29.66458467,-98.158355
Texas,830,home inspection engineers,100.00,1,0,0,0,12.06,12.06,0,0,0.00,0.00,29.758817,-98.191068
Texas,830,independent structural engineer,100.00,1,0,0,0,9.96,9.96,0,0,0.00,0.00,29.769466,-98.453225
Texas,830,licensed structural engineer near me,100.00,1,0,0,0,9.08,9.08,0,0,0.00,0.00,30.531339,-98.378347
Texas,830,residential engineer near me,100.00,1,0,0,0,9.21,9.21,0,0,0.00,0.00,29.893745,-98.391104
Texas,830,residential structural engineer near me,100.00,1,3,0,0,12.67,12.67,0,0,0.00,0.00,30.036565,-99.163069
Texas,830,structural calculations,100.00,1,0,0,0,5.30,5.30,0,0,0.00,0.00,29.972311,-98.904698
Texas,830,structural design,100.00,1,0,0,0,12.51,12.51,0,0,0.00,0.00,30.083786,-98.476159
Texas,830,structural design engineer,100.00,1,0,0,0,8.29,8.29,0,0,0.00,0.00,29.362904,-99.898132
Texas,830,structural engineer,96.04,41,5.5,4,1,408.75,9.97,1900,400,0.98,0.21,29.73461693,-98.5087755
Texas,830,structural engineer fees,100.00,1,0,0,0,9.22,9.22,0,0,0.00,0.00,29.689692,-98.911216
Texas,830,structural engineer house inspection cost,100.00,1,0,0,0,12.39,12.39,0,0,0.00,0.00,29.85855,-98.703353
Texas,830,structural engineer near me,100.00,4,0.5,0,0,38.13,9.53,0,0,0.00,0.00,29.83635325,-98.686823
Texas,830,structural home inspection,100.00,1,0,0,0,12.39,12.39,0,0,0.00,0.00,29.893745,-98.391104
Texas,832,architect,57.47,79,1,0,0,765.71,9.69,0,0,0.00,0.00,29.7775788,-95.4163173
Texas,832,architect cost,66.66,2,0,0,0,17.98,8.99,0,0,0.00,0.00,29.8439495,-95.402785
Texas,832,architects near me,65.00,2,0,0,0,19.40,9.70,0,0,0.00,0.00,29.7074835,-95.2096895
Texas,832,architectural engineering,36.92,1,0,0,0,10.69,10.69,0,0,0.00,0.00,29.748202,-95.468948
Texas,832,best structural engineer,100.00,2,0,2,2,4.02,2.01,950,950,236.32,1.00,29.998421,-95.66736
Texas,832,building structural engineer,100.00,1,0,1,1,7.78,7.78,550,550,70.69,1.00,29.688459,-95.057379
Texas,832,civil structural engineer,82.24,13,0,10,4,108.85,8.37,4300,1500,13.78,0.35,29.79516488,-95.47900588
Texas,832,commercial structural engineer near me,100.00,1,0,1,0,12.80,12.80,400,0,0.00,0.00,29.689824,-95.252393
Texas,832,find a structural engineer,100.00,2,0,0,0,15.53,7.77,0,0,0.00,0.00,30.1633725,-95.4693795
Texas,832,forensic structural engineer,100.00,3,0,5,1,27.48,9.16,3200,500,18.20,0.16,29.83680133,-95.28962433
Texas,832,foundation cracks,80.76,26,0,49,14,321.18,12.35,21100,6350,19.77,0.30,29.75938743,-95.45137176
Texas,832,foundation engineer inspection,100.00,6,0,6,1,73.07,12.18,2800,500,6.84,0.18,29.684917,-95.2995256
Texas,832,foundation engineering,90.78,39,8.9,31,10,400.27,10.26,14350,4800,11.99,0.33,29.80245152,-95.43001371
Texas,832,foundation structural engineer,100.00,5,0,10,2,61.36,12.27,4700,1000,16.30,0.21,29.815604,-95.4311746
Texas,832,freelance structural engineer,100.00,1,0,0,0,5.27,5.27,0,0,0.00,0.00,29.740079,-95.446409
Texas,832,home inspection engineers,100.00,4,1,2,2,44.79,11.20,950,950,21.21,1.00,29.776751,-95.46659025
Texas,832,home plan designers,100.00,1,0,0,0,9.68,9.68,0,0,0.00,0.00,29.926473,-95.60379
Texas,832,home structural engineer,100.00,3,0,7,2,23.03,7.68,3200,950,41.25,0.30,29.7637295,-95.595446
Texas,832,licensed structural engineer,95.98,8,0,4,3,73.44,9.18,4200,1900,25.87,0.45,29.8315876,-95.3235102
Texas,832,local architect,78.75,2,0,0,0,9.23,4.62,0,0,0.00,0.00,30.031125,-95.201845
Texas,832,local structural engineer near me,100.00,2,0,0,0,18.40,9.20,0,0,0.00,0.00,29.539422,-95.134995
Texas,832,nearby interior designer,77.50,2,0,0,0,19.90,9.95,0,0,0.00,0.00,29.965762,-95.5762225
Texas,832,professional structural engineer,50.00,2,0,0,0,19.44,9.72,0,0,0.00,0.00,29.698301,-95.544185
Texas,832,resident engineer,96.04,4,1,119,8,35.24,8.81,64794,2500,70.94,0.04,29.7670835,-95.30853
Texas,832,residential architect,100.00,1,0,0,0,8.90,8.90,0,0,0.00,0.00,29.718435,-95.423555
Texas,832,residential architects near me,75.00,2,0,0,0,18.76,9.38,0,0,0.00,0.00,29.8310805,-95.5985265
Texas,832,residential construction engineer,100.00,3,0,4,3,27.49,9.16,1350,1000,36.38,0.74,29.97639933,-95.50475867
Texas,832,residential design build,55.00,1,0,0,0,9.72,9.72,0,0,0.00,0.00,29.744081,-95.487974
Texas,832,residential engineer near me,100.00,5,0,4,0,45.99,9.20,1500,0,0.00,0.00,29.78077975,-95.48694275
Texas,832,residential foundation engineer,100.00,1,0,1,1,12.08,12.08,450,450,37.25,1.00,30.186277,-95.410662
Texas,832,residential structural engineer,87.04,9,1,12,3,76.09,8.45,5450,1450,19.06,0.27,29.77043667,-95.34964122
Texas,832,residential structural engineer inspection,100.00,1,0,0,0,7.79,7.79,0,0,0.00,0.00,29.740677,-95.829652
Texas,832,residential structural engineer inspection near me,100.00,1,1,1,1,12.38,12.38,500,500,40.39,1.00,29.789523,-94.859125
Texas,832,residential structural engineer near me,100.00,5,2.25,3,0,62.34,12.47,1300,0,0.00,0.00,29.757224,-95.273212
Texas,832,residential structural inspection,100.00,4,2,4,1,46.31,11.58,2000,550,11.88,0.28,29.81912933,-95.135987
Texas,832,small structural engineering firms,100.00,1,0,0,0,7.76,7.76,0,0,0.00,0.00,29.718435,-95.423555
Texas,832,steel structural engineer,53.33,2,0,5,2,9.06,4.53,2300,900,99.34,0.39,30.040876,-95.528914
Texas,832,str engineering,100.00,1,0,0,0,6.56,6.56,0,0,0.00,0.00,29.753624,-95.35981
Texas,832,structural analysis services,100.00,2,0,2,2,17.03,8.52,950,950,55.78,1.00,29.9179965,-95.700557
Texas,832,structural building engineer,100.00,1,0,0,0,9.24,9.24,0,0,0.00,0.00,29.704019,-95.460905
Texas,832,structural calculations,76.00,2,0.33,0,0,25.03,12.52,0,0,0.00,0.00,29.718435,-95.423555
Texas,832,structural contractors,95.83,3,2,6,0,32.91,10.97,2750,0,0.00,0.00,29.70149067,-95.42496833
Texas,832,structural design,85.66,39,0,13,2,398.39,10.22,6100,850,2.13,0.14,29.75912394,-95.42610412
Texas,832,structural design companies,100.00,1,1,1,0,5.75,5.75,400,0,0.00,0.00,29.600434,-95.515549
Texas,832,structural design engineer,74.03,3,0,1,0,34.23,11.41,400,0,0.00,0.00,29.8400485,-95.4818
Texas,832,structural engineer,83.41,856,64.31,232,39,8245.81,9.63,115994,19050,2.31,0.16,29.78556943,-95.39937183
Texas,832,structural engineer costs,100.00,1,0,2,0,7.98,7.98,900,0,0.00,0.00,29.515074,-95.192133
Texas,832,structural engineer home inspection,100.00,5,0,125,10,56.49,11.30,68494,4650,82.32,0.07,29.6776496,-95.1953484
Texas,832,structural engineer inspection,98.01,18,1,24,8,185.96,10.33,10300,3400,18.28,0.33,29.84033375,-95.43729381
Texas,832,structural engineer inspection cost,100.00,1,0,4,1,12.18,12.18,1900,500,41.05,0.26,29.503785,-95.0873
Texas,832,structural engineer inspection near me,0.00,1,0,8,2,6.92,6.92,3650,950,137.28,0.26,30.046777,-95.221022
Texas,832,structural engineer near me,92.35,30,4,47,14,292.71,9.76,21100,7350,25.11,0.35,29.80611795,-95.41495057
Texas,832,structural engineering companies,77.08,14,2,131,9,107.26,7.66,69094,3400,31.70,0.05,29.8074442,-95.3988593
Texas,832,structural engineering consulting firms,100.00,1,0,3,1,12.28,12.28,1450,500,40.72,0.34,30.100255,-95.356479
Texas,832,structural engineering firms,89.57,15,0,7,3,120.18,8.01,2650,1000,8.32,0.38,29.7683781,-95.4948962
Texas,832,structural engineering services,100.00,4,0,6,2,31.72,7.93,2750,900,28.37,0.33,29.72098625,-95.5653005
Texas,832,structural engineers in my area,100.00,3,0,2,0,27.07,9.02,950,0,0.00,0.00,29.985841,-95.517721
Texas,832,structural firm,70.00,1,0,3,2,4.82,4.82,3650,1350,280.08,0.37,29.675339,-95.479372
Texas,832,structural home inspection,100.00,3,1,117,7,38.20,12.73,64044,2450,64.14,0.04,29.848158,-95.28918133
Texas,832,structural inspection,95.08,71,7,137,12,668.94,9.42,72044,4150,6.20,0.06,29.79531073,-95.43926718
Texas,832,structural inspection cost,100.00,1,0,0,0,7.64,7.64,0,0,0.00,0.00,29.837572,-95.733754
Texas,832,structural inspection near me,100.00,1,0,0,0,8.42,8.42,0,0,0.00,0.00,30.216858,-95.647214
Texas,832,top structural engineering firms,100.00,4,0,3,0,49.84,12.46,1200,0,0.00,0.00,29.84805433,-95.46059567
Texas,832,wind inspection,100.00,1,0,1,0,12.75,12.75,550,0,0.00,0.00,29.802461,-94.970322
Texas,832,windstorm inspection,94.24,81,12,33,12,569.50,7.03,14950,5550,9.75,0.37,29.73144034,-95.28731453
Texas,833,best structural engineer,100.00,1,0,2,1,12.45,12.45,1250,550,44.18,0.44,29.426496,-94.685696
Texas,833,foundation cracks,90.87,5,0,0,0,54.92,10.98,0,0,0.00,0.00,30.019979,-98.42971
Texas,833,foundation engineer inspection,100.00,2,0,0,0,22.95,11.48,0,0,0.00,0.00,29.609914,-98.746764
Texas,833,foundation engineering,94.85,6,0,4,1,69.17,11.53,1300,450,6.51,0.35,30.4142455,-97.958943
Texas,833,home inspection engineers,100.00,1,0,1,1,12.75,12.75,450,450,35.29,1.00,30.161065,-95.189809
Texas,833,house structure inspection,100.00,1,0,0,0,12.29,12.29,0,0,0.00,0.00,29.609914,-98.746764
Texas,833,independent structural engineer,100.00,1,0,3,1,10.01,10.01,850,450,44.96,0.53,29.487774,-98.291474
Texas,833,licensed structural engineer,100.00,2,0,1,0,13.34,6.67,450,0,0.00,0.00,29.547159,-98.262598
Texas,833,resident engineer,100.00,1,0,1,1,7.73,7.73,450,450,58.21,1.00,30.161065,-95.189809
Texas,833,residential construction engineer,100.00,1,0,2,1,7.05,7.05,1250,550,78.01,0.44,29.426496,-94.685696
Texas,833,residential structural engineer,100.00,1,0,1,0,10.78,10.78,450,0,0.00,0.00,29.547159,-98.262598
Texas,833,structural design,100.00,1,0,0,0,12.62,12.62,0,0,0.00,0.00,30.430044,-98.112656
Texas,833,structural engineer,95.76,15,0,3,1,131.86,8.79,1700,550,4.17,0.32,30.528784,-97.26572429
Texas,833,structural engineer inspection,100.00,1,0,1,1,2.40,2.40,450,450,187.50,1.00,30.161065,-95.189809
Texas,833,structural engineer near me,100.00,2,1,1,0,21.91,10.96,450,0,0.00,0.00,31.533205,-97.37346
Texas,833,structural engineering companies,100.00,1,0,0,0,12.22,12.22,0,0,0.00,0.00,32.695708,-97.631482
Texas,833,structural home inspection,100.00,1,0,0,0,12.64,12.64,0,0,0.00,0.00,30.430044,-98.112656
Texas,903,commercial structural engineer near me,100.00,1,0,0,0,8.88,8.88,0,0,0.00,0.00,33.020475,-94.729699
Texas,903,foundation engineer inspection,100.00,1,0,0,0,12.26,12.26,0,0,0.00,0.00,33.189002,-96.108829
Texas,903,foundation engineering,95.50,10,0,4,2,97.36,9.74,1850,1250,12.84,0.68,32.6636215,-95.85484925
Texas,903,foundation structural engineer,100.00,3,0,1,0,28.04,9.35,600,0,0.00,0.00,33.44252567,-95.55376
Texas,903,home structural engineer,100.00,1,0,0,0,4.83,4.83,0,0,0.00,0.00,32.537897,-95.435716
Texas,903,licensed structural engineer,100.00,1,0,0,0,8.84,8.84,0,0,0.00,0.00,33.189002,-96.108829
Texas,903,local structural engineer,100.00,1,3,2,1,12.20,12.20,1100,550,45.08,0.50,32.9242,-96.109811
Texas,903,residential foundation engineer,100.00,1,0,4,0,12.77,12.77,2850,0,0.00,0.00,33.770785,-96.604061
Texas,903,residential structural engineer,100.00,1,0,0,0,6.90,6.90,0,0,0.00,0.00,32.516876,-95.883622
Texas,903,residential structural engineer inspection near me,100.00,2,0,0,0,24.33,12.17,0,0,0.00,0.00,32.8907265,-95.366345
Texas,903,residential structural engineer near me,100.00,2,0,0,0,18.45,9.23,0,0,0.00,0.00,32.104684,-96.2312885
Texas,903,steel structural engineer,100.00,1,0,0,0,8.96,8.96,0,0,0.00,0.00,31.473667,-96.009365
Texas,903,structural engineer,97.19,53,5,11,3,470.08,8.87,6400,1850,3.94,0.29,32.84357116,-95.65182504
Texas,903,structural engineer costs,100.00,1,0,0,0,5.45,5.45,0,0,0.00,0.00,32.244008,-95.807608
Texas,903,structural engineer home inspection,100.00,1,0,0,0,12.83,12.83,0,0,0.00,0.00,32.277759,-96.105332
Texas,903,structural engineer inspection,100.00,2,1,2,1,18.17,9.09,1200,600,33.02,0.50,32.858477,-96.3260865
Texas,903,structural engineer inspection cost,100.00,2,0,0,0,22.62,11.31,0,0,0.00,0.00,32.7820925,-95.9002945
Texas,903,structural engineer near me,91.00,6,0,0,0,51.49,8.58,0,0,0.00,0.00,32.8381138,-95.4423026
Texas,903,structural engineering services near me,100.00,1,0,0,0,5.14,5.14,0,0,0.00,0.00,32.249318,-94.45322
Texas,903,structural engineers in my area,100.00,2,0,4,0,17.99,9.00,1150,0,0.00,0.00,32.7673325,-95.926629
Texas,903,structural inspection,100.00,3,0,0,0,27.12,9.04,0,0,0.00,0.00,32.76324433,-94.821665
Texas,903,structural inspection near me,100.00,2,0,0,0,16.18,8.09,0,0,0.00,0.00,33.481465,-94.5330405
Texas,903,windstorm inspection,100.00,1,0,0,0,9.42,9.42,0,0,0.00,0.00,33.683869,-95.344733
Texas,936,architect,58.61,1,0,0,0,9.42,9.42,0,0,0.00,0.00,30.307375,-95.438548
Texas,936,foundation cracks,100.00,1,0,0,0,12.73,12.73,0,0,0.00,0.00,30.558321,-95.436252
Texas,936,foundation engineering,97.50,5,1,2,1,37.20,7.44,1100,500,13.44,0.45,30.5967722,-95.4491716
Texas,936,foundation structural engineer,100.00,1,0,0,0,11.93,11.93,0,0,0.00,0.00,30.717792,-94.817231
Texas,936,home inspection engineers,100.00,2,1,4,0,25.08,12.54,2500,0,0.00,0.00,30.3859125,-95.708139
Texas,936,pe civil structural,100.00,1,0,0,0,12.55,12.55,0,0,0.00,0.00,30.574473,-94.911179
Texas,936,residential engineer near me,100.00,1,0,0,0,4.08,4.08,0,0,0.00,0.00,31.483597,-94.131501
Texas,936,residential structural engineer,100.00,2,1,1,0,16.00,8.00,600,0,0.00,0.00,30.576206,-95.4019515
Texas,936,structural design companies,100.00,1,0,0,0,8.34,8.34,0,0,0.00,0.00,30.28584,-95.312397
Texas,936,structural engineer,93.12,22,5,5,1,156.15,7.10,2900,500,3.20,0.17,30.38004457,-95.61131914
Texas,936,structural engineer calculations,100.00,1,0,0,0,8.95,8.95,0,0,0.00,0.00,30.156257,-95.74926
Texas,936,structural engineer inspection,100.00,2,0,0,0,6.06,3.03,0,0,0.00,0.00,30.619756,-95.6088705
Texas,936,structural engineer near me,100.00,6,1,5,1,53.03,8.84,2700,450,8.49,0.17,30.870113,-95.116455
Texas,936,structural engineering services,100.00,1,0,0,0,8.19,8.19,0,0,0.00,0.00,30.438807,-95.533229
Texas,936,structural engineers in my area,100.00,1,0,0,0,9.36,9.36,0,0,0.00,0.00,30.717792,-94.817231
Texas,936,structural inspection,100.00,1,0,2,1,12.93,12.93,1000,500,38.67,0.50,30.307375,-95.438548
Texas,936,windstorm inspection,100.00,2,0,2,1,6.91,3.46,1000,500,72.36,0.50,30.3893745,-95.40121
Texas,940,foundation cracks,89.29,2,0,0,0,21.44,10.72,0,0,0.00,0.00,33.5685555,-97.794903
Texas,940,foundation engineer inspection,100.00,1,0,0,0,12.30,12.30,0,0,0.00,0.00,33.273603,-96.990042
Texas,940,foundation engineering,96.25,8,0,3,0,70.12,8.77,1500,0,0.00,0.00,33.22164683,-97.83241117
Texas,940,home inspection,80.95,2,0,0,0,16.66,8.33,0,0,0.00,0.00,33.192632,-97.129266
Texas,940,home inspector,82.00,1,0,0,0,6.39,6.39,0,0,0.00,0.00,33.231552,-97.109871
Texas,940,licensed structural engineer near me,100.00,1,0,0,0,5.24,5.24,0,0,0.00,0.00,33.894923,-98.543742
Texas,940,residential structural engineer inspection near me,100.00,2,0,0,0,18.05,9.03,0,0,0.00,0.00,33.864528,-98.491011
Texas,940,structural engineer,93.54,14,0,0,0,120.97,8.64,0,0,0.00,0.00,33.49492289,-97.82714244
Texas,940,structural engineer inspection,100.00,3,0,0,0,37.45,12.48,0,0,0.00,0.00,33.332065,-98.3089085
Texas,940,structural engineer near me,100.00,2,0,0,0,24.90,12.45,0,0,0.00,0.00,33.503014,-97.529509
Texas,940,structural engineering companies,100.00,1,0,0,0,1.64,1.64,0,0,0.00,0.00,33.661602,-97.176369
Texas,940,structural inspection,100.00,3,0,0,0,13.54,4.51,0,0,0.00,0.00,33.8797255,-98.5173765
Texas,979,civil structural engineer,75.00,1,0,1,0,5.47,5.47,850,0,0.00,0.00,30.609093,-96.325984
Texas,979,foundation cracks,88.00,1,0,0,0,13.78,13.78,0,0,0.00,0.00,30.661252,-96.322614
Texas,979,foundation engineering,98.13,7,0,1,0,46.56,6.65,600,0,0.00,0.00,29.83750417,-96.17803117
Texas,979,foundation structural engineer,100.00,1,0,1,0,12.45,12.45,600,0,0.00,0.00,29.780109,-96.181158
Texas,979,home inspection engineers,100.00,1,0,0,0,12.10,12.10,0,0,0.00,0.00,29.174921,-95.450088
Texas,979,home structural engineer,100.00,1,0,0,0,6.04,6.04,0,0,0.00,0.00,29.052739,-95.474351
Texas,979,resident engineer,100.00,1,0,0,0,5.45,5.45,0,0,0.00,0.00,30.681053,-96.386067
Texas,979,residential construction engineer,100.00,1,0,0,0,6.66,6.66,0,0,0.00,0.00,29.052739,-95.474351
Texas,979,residential engineer near me,100.00,1,0,0,0,9.24,9.24,0,0,0.00,0.00,30.661252,-96.322614
Texas,979,structural design,82.70,2,0,1,0,25.18,12.59,850,0,0.00,0.00,30.645073,-96.3560255
Texas,979,structural engineer,90.06,41,1,3,1,320.92,7.83,2300,750,2.34,0.33,29.92909162,-96.16543015
Texas,979,structural engineer inspection,100.00,2,0,0,0,8.52,4.26,0,0,0.00,0.00,29.383068,-95.806472
Texas,979,structural engineer near me,100.00,5,0,0,0,53.76,10.75,0,0,0.00,0.00,29.945864,-96.01312567
Texas,979,structural home inspection,100.00,1,0,0,0,12.62,12.62,0,0,0.00,0.00,30.164042,-96.71828
Texas,979,windstorm inspection,98.57,22,3,2,0,102.62,4.66,1250,0,0.00,0.00,29.25877217,-95.68390683